{
  "type": "FeatureCollection",
  "name": "black_sea_hydrogeological_investigations_preview",
  "metadata": {
    "basin_district": "BG2",
    "record_type": "hydrogeological_investigation",
    "completed_facility_confirmed": false,
    "feature_count": 23
  },
  "features": [
    {
      "type": "Feature",
      "geometry": {
        "type": "Point",
        "coordinates": [
          27.40272222,
          42.39688889
        ]
      },
      "properties": {
        "record_type": "hydrogeological_investigation",
        "source_row": 4,
        "register_number": 1,
        "gwb_code": "BG2G00000K2035",
        "gwb_name": "Пукнатинни води в горна креда, Бургаска вулканична зона, южно от Бургас",
        "status": "registered_investigation",
        "completed_facility_confirmed": false,
        "settlement": "Димчево",
        "municipality": "Бургас",
        "district": "Бургас",
        "project_depth_m": 25.0,
        "project_depth_min_m": 25.0,
        "project_depth_max_m": 25.0,
        "project_depth_source": "25",
        "construction_description": "сондиране ф 140 мм",
        "diameters_mm": [
          140
        ],
        "drilling_diameters_mm": [
          140
        ],
        "casing_diameters_mm": [],
        "filter_diameters_mm": [],
        "construction_intervals_m": [],
        "materials": [],
        "gravel_pack_mentioned": false,
        "conductor_casing_mentioned": false,
        "filter_mentioned": false
      }
    },
    {
      "type": "Feature",
      "geometry": {
        "type": "Point",
        "coordinates": [
          28.12834722,
          43.66883333
        ]
      },
      "properties": {
        "record_type": "hydrogeological_investigation",
        "source_row": 5,
        "register_number": 2,
        "gwb_code": "BG2G000J3K1041",
        "gwb_name": "Карстови води в малм-валанж",
        "status": "registered_investigation",
        "completed_facility_confirmed": false,
        "settlement": "Люляково",
        "municipality": "Генерал Тошево",
        "district": "Добрич",
        "project_depth_m": 650.0,
        "project_depth_min_m": 650.0,
        "project_depth_max_m": 650.0,
        "project_depth_source": "650",
        "construction_description": "сондиране ф 200 мм , колона и филтри ф 110 мм",
        "diameters_mm": [
          110,
          200
        ],
        "drilling_diameters_mm": [
          110,
          200
        ],
        "casing_diameters_mm": [
          110
        ],
        "filter_diameters_mm": [
          110
        ],
        "construction_intervals_m": [],
        "materials": [],
        "gravel_pack_mentioned": false,
        "conductor_casing_mentioned": false,
        "filter_mentioned": true
      }
    },
    {
      "type": "Feature",
      "geometry": {
        "type": "Point",
        "coordinates": [
          28.18841111,
          43.69470833
        ]
      },
      "properties": {
        "record_type": "hydrogeological_investigation",
        "source_row": 6,
        "register_number": 3,
        "gwb_code": "BG2G000J3K1041",
        "gwb_name": "Карстови води в малм-валанж",
        "status": "registered_investigation",
        "completed_facility_confirmed": false,
        "settlement": "Чернооково",
        "municipality": "Генерал Тошево",
        "district": "Добрич",
        "project_depth_m": 500.0,
        "project_depth_min_m": 500.0,
        "project_depth_max_m": 500.0,
        "project_depth_source": "500",
        "construction_description": "сондиране ф 200 мм , колона и филтри ф 110 мм",
        "diameters_mm": [
          110,
          200
        ],
        "drilling_diameters_mm": [
          110,
          200
        ],
        "casing_diameters_mm": [
          110
        ],
        "filter_diameters_mm": [
          110
        ],
        "construction_intervals_m": [],
        "materials": [],
        "gravel_pack_mentioned": false,
        "conductor_casing_mentioned": false,
        "filter_mentioned": true
      }
    },
    {
      "type": "Feature",
      "geometry": {
        "type": "Point",
        "coordinates": [
          26.91069444,
          43.30633333
        ]
      },
      "properties": {
        "record_type": "hydrogeological_investigation",
        "source_row": 7,
        "register_number": 4,
        "gwb_code": "BG2G000J3K1041",
        "gwb_name": "Карстови води в малм-валанж",
        "status": "registered_investigation",
        "completed_facility_confirmed": false,
        "settlement": "гр. Шумен",
        "municipality": "Шумен",
        "district": "Шумен",
        "project_depth_m": 700.0,
        "project_depth_min_m": 700.0,
        "project_depth_max_m": 700.0,
        "project_depth_source": "700",
        "construction_description": "сондиране ф 1100 мм , колона и филтри ф 110 мм",
        "diameters_mm": [
          110,
          1100
        ],
        "drilling_diameters_mm": [
          110,
          1100
        ],
        "casing_diameters_mm": [
          110
        ],
        "filter_diameters_mm": [
          110
        ],
        "construction_intervals_m": [],
        "materials": [],
        "gravel_pack_mentioned": false,
        "conductor_casing_mentioned": false,
        "filter_mentioned": true
      }
    },
    {
      "type": "Feature",
      "geometry": {
        "type": "Point",
        "coordinates": [
          27.23113611,
          42.53614444
        ]
      },
      "properties": {
        "record_type": "hydrogeological_investigation",
        "source_row": 8,
        "register_number": 5,
        "gwb_code": "BG2G00000PG029",
        "gwb_name": "Порови води в палеоген - еоцен , олигоцен Бургас",
        "status": "registered_investigation",
        "completed_facility_confirmed": false,
        "settlement": "с. Равнец",
        "municipality": "Бургас",
        "district": "Бургас",
        "project_depth_m": 100.0,
        "project_depth_min_m": 100.0,
        "project_depth_max_m": 100.0,
        "project_depth_source": "100",
        "construction_description": null,
        "diameters_mm": [],
        "drilling_diameters_mm": [],
        "casing_diameters_mm": [],
        "filter_diameters_mm": [],
        "construction_intervals_m": [],
        "materials": [],
        "gravel_pack_mentioned": false,
        "conductor_casing_mentioned": false,
        "filter_mentioned": false
      }
    },
    {
      "type": "Feature",
      "geometry": {
        "type": "Point",
        "coordinates": [
          27.81833333,
          43.50527778
        ]
      },
      "properties": {
        "record_type": "hydrogeological_investigation",
        "source_row": 9,
        "register_number": 6,
        "gwb_code": "BG2G000000N018",
        "gwb_name": "Карстово - порови води в неоген - миоцен -сармат Изгрев-Варна -Ботево-Батово",
        "status": "registered_investigation",
        "completed_facility_confirmed": false,
        "settlement": "с. Богдан",
        "municipality": "Добричка",
        "district": "Добрич",
        "project_depth_m": 120.0,
        "project_depth_min_m": 100.0,
        "project_depth_max_m": 140.0,
        "project_depth_source": "120±20",
        "construction_description": "сондиране ф 110 мм , колона и филтри ф 110 мм",
        "diameters_mm": [
          110
        ],
        "drilling_diameters_mm": [
          110
        ],
        "casing_diameters_mm": [
          110
        ],
        "filter_diameters_mm": [
          110
        ],
        "construction_intervals_m": [],
        "materials": [],
        "gravel_pack_mentioned": false,
        "conductor_casing_mentioned": false,
        "filter_mentioned": true
      }
    },
    {
      "type": "Feature",
      "geometry": {
        "type": "Point",
        "coordinates": [
          27.41633333,
          42.45727778
        ]
      },
      "properties": {
        "record_type": "hydrogeological_investigation",
        "source_row": 10,
        "register_number": 7,
        "gwb_code": "BG2G00000PG029",
        "gwb_name": "Порови води в палеоген - еоцен , олигоцен Бургас",
        "status": "registered_investigation",
        "completed_facility_confirmed": false,
        "settlement": "гр. Бургас",
        "municipality": "Бургас",
        "district": "Бургас",
        "project_depth_m": 15.0,
        "project_depth_min_m": 15.0,
        "project_depth_max_m": 15.0,
        "project_depth_source": "15",
        "construction_description": "сондиране ф 152 мм , колона и филтри ф 110 мм",
        "diameters_mm": [
          110,
          152
        ],
        "drilling_diameters_mm": [
          110,
          152
        ],
        "casing_diameters_mm": [
          110
        ],
        "filter_diameters_mm": [
          110
        ],
        "construction_intervals_m": [],
        "materials": [],
        "gravel_pack_mentioned": false,
        "conductor_casing_mentioned": false,
        "filter_mentioned": true
      }
    },
    {
      "type": "Feature",
      "geometry": {
        "type": "Point",
        "coordinates": [
          28.07222222,
          43.46277778
        ]
      },
      "properties": {
        "record_type": "hydrogeological_investigation",
        "source_row": 12,
        "register_number": 9,
        "gwb_code": "BG2G000000N044",
        "gwb_name": "Карстово - порови води в неоген -сармат СИ Добруджа",
        "status": "registered_investigation",
        "completed_facility_confirmed": false,
        "settlement": "с. Соколово",
        "municipality": "Балчик",
        "district": "Добрич",
        "project_depth_m": 225.0,
        "project_depth_min_m": 200.0,
        "project_depth_max_m": 250.0,
        "project_depth_source": "225±25",
        "construction_description": "колона и филтри ф 110 мм",
        "diameters_mm": [
          110
        ],
        "drilling_diameters_mm": [],
        "casing_diameters_mm": [
          110
        ],
        "filter_diameters_mm": [
          110
        ],
        "construction_intervals_m": [],
        "materials": [],
        "gravel_pack_mentioned": false,
        "conductor_casing_mentioned": false,
        "filter_mentioned": true
      }
    },
    {
      "type": "Feature",
      "geometry": {
        "type": "Point",
        "coordinates": [
          28.43534722,
          43.42156111
        ]
      },
      "properties": {
        "record_type": "hydrogeological_investigation",
        "source_row": 13,
        "register_number": 10,
        "gwb_code": "BG2G000000N044",
        "gwb_name": "Карстово - порови води в неоген -сармат СИ Добруджа",
        "status": "registered_investigation",
        "completed_facility_confirmed": false,
        "settlement": "с. Българево",
        "municipality": "Каварна",
        "district": "Добрич",
        "project_depth_m": 70.0,
        "project_depth_min_m": 65.0,
        "project_depth_max_m": 75.0,
        "project_depth_source": "70±5",
        "construction_description": "колона и филтри ф 110 мм",
        "diameters_mm": [
          110
        ],
        "drilling_diameters_mm": [],
        "casing_diameters_mm": [
          110
        ],
        "filter_diameters_mm": [
          110
        ],
        "construction_intervals_m": [],
        "materials": [],
        "gravel_pack_mentioned": false,
        "conductor_casing_mentioned": false,
        "filter_mentioned": true
      }
    },
    {
      "type": "Feature",
      "geometry": {
        "type": "Point",
        "coordinates": [
          27.9,
          43.2
        ]
      },
      "properties": {
        "record_type": "hydrogeological_investigation",
        "source_row": 14,
        "register_number": 11,
        "gwb_code": "BG2G000000N018",
        "gwb_name": "Карстово - порови води в неоген - миоцен -сармат Изгрев-Варна -Ботево-Батово",
        "status": "registered_investigation",
        "completed_facility_confirmed": false,
        "settlement": "гр. Варна",
        "municipality": "Варна",
        "district": "Варна",
        "project_depth_m": 11.0,
        "project_depth_min_m": 11.0,
        "project_depth_max_m": 11.0,
        "project_depth_source": "11",
        "construction_description": "колона и филтри ф 110 мм",
        "diameters_mm": [
          110
        ],
        "drilling_diameters_mm": [],
        "casing_diameters_mm": [
          110
        ],
        "filter_diameters_mm": [
          110
        ],
        "construction_intervals_m": [],
        "materials": [],
        "gravel_pack_mentioned": false,
        "conductor_casing_mentioned": false,
        "filter_mentioned": true
      }
    },
    {
      "type": "Feature",
      "geometry": {
        "type": "Point",
        "coordinates": [
          26.43780556,
          43.05947222
        ]
      },
      "properties": {
        "record_type": "hydrogeological_investigation",
        "source_row": 15,
        "register_number": 12,
        "gwb_code": "BG2G000K1HB038",
        "gwb_name": "Пукнатинни води в Предбалкан -Валанж- Хотрив - апт Конево",
        "status": "registered_investigation",
        "completed_facility_confirmed": false,
        "settlement": "с. Веренци",
        "municipality": "Омуртаг",
        "district": "Търговище",
        "project_depth_m": null,
        "project_depth_min_m": null,
        "project_depth_max_m": null,
        "project_depth_source": null,
        "construction_description": null,
        "diameters_mm": [],
        "drilling_diameters_mm": [],
        "casing_diameters_mm": [],
        "filter_diameters_mm": [],
        "construction_intervals_m": [],
        "materials": [],
        "gravel_pack_mentioned": false,
        "conductor_casing_mentioned": false,
        "filter_mentioned": false
      }
    },
    {
      "type": "Feature",
      "geometry": {
        "type": "Point",
        "coordinates": [
          28.19973611,
          43.736125
        ]
      },
      "properties": {
        "record_type": "hydrogeological_investigation",
        "source_row": 17,
        "register_number": 14,
        "gwb_code": "BG2G000J3K1041",
        "gwb_name": "Карстови води в малм-валанж",
        "status": "registered_investigation",
        "completed_facility_confirmed": false,
        "settlement": "с. Чернооково",
        "municipality": "Генерал Тошево",
        "district": "Добрич",
        "project_depth_m": 450.0,
        "project_depth_min_m": 400.0,
        "project_depth_max_m": 500.0,
        "project_depth_source": "450±50",
        "construction_description": "От 0 до 210±10 м експлоатационна колона с ф 325 мм; от 180 - 450±10 м - филтърна тръба ф 110 мм;",
        "diameters_mm": [
          110,
          325
        ],
        "drilling_diameters_mm": [],
        "casing_diameters_mm": [
          110,
          325
        ],
        "filter_diameters_mm": [
          110
        ],
        "construction_intervals_m": [
          {
            "from_m": 0.0,
            "to_m": 210.0
          },
          {
            "from_m": 180.0,
            "to_m": 450.0
          }
        ],
        "materials": [],
        "gravel_pack_mentioned": false,
        "conductor_casing_mentioned": false,
        "filter_mentioned": true
      }
    },
    {
      "type": "Feature",
      "geometry": {
        "type": "Point",
        "coordinates": [
          28.46138889,
          43.69361111
        ]
      },
      "properties": {
        "record_type": "hydrogeological_investigation",
        "source_row": 18,
        "register_number": 15,
        "gwb_code": "BG2G000000N044",
        "gwb_name": "Карстово - порови води в неоген -сармат СИ Добруджа",
        "status": "liquidated",
        "completed_facility_confirmed": false,
        "settlement": "с. Захари Стояново",
        "municipality": "Шабла",
        "district": "Добрич",
        "project_depth_m": 80.0,
        "project_depth_min_m": 80.0,
        "project_depth_max_m": 80.0,
        "project_depth_source": "80",
        "construction_description": "от 0 до 80 м експлоатационна колона с ф 110, филтри в интервал от 55-75 м,",
        "diameters_mm": [
          110
        ],
        "drilling_diameters_mm": [],
        "casing_diameters_mm": [
          110
        ],
        "filter_diameters_mm": [],
        "construction_intervals_m": [
          {
            "from_m": 0.0,
            "to_m": 80.0
          },
          {
            "from_m": 55.0,
            "to_m": 75.0
          }
        ],
        "materials": [],
        "gravel_pack_mentioned": false,
        "conductor_casing_mentioned": false,
        "filter_mentioned": true
      }
    },
    {
      "type": "Feature",
      "geometry": {
        "type": "Point",
        "coordinates": [
          26.63194444,
          43.01219444
        ]
      },
      "properties": {
        "record_type": "hydrogeological_investigation",
        "source_row": 19,
        "register_number": 16,
        "gwb_code": "BG2G000K1HB038",
        "gwb_name": "Пукнатинни води в Предбалкан -Валанж- Хотрив - апт Конево",
        "status": "registered_investigation",
        "completed_facility_confirmed": false,
        "settlement": "с. Величка",
        "municipality": "Омуртаг",
        "district": "Търговище",
        "project_depth_m": 70.0,
        "project_depth_min_m": 70.0,
        "project_depth_max_m": 70.0,
        "project_depth_source": "70",
        "construction_description": null,
        "diameters_mm": [],
        "drilling_diameters_mm": [],
        "casing_diameters_mm": [],
        "filter_diameters_mm": [],
        "construction_intervals_m": [],
        "materials": [],
        "gravel_pack_mentioned": false,
        "conductor_casing_mentioned": false,
        "filter_mentioned": false
      }
    },
    {
      "type": "Feature",
      "geometry": {
        "type": "Point",
        "coordinates": [
          26.54088889,
          43.09083333
        ]
      },
      "properties": {
        "record_type": "hydrogeological_investigation",
        "source_row": 20,
        "register_number": 17,
        "gwb_code": "BG2G000K1HB038",
        "gwb_name": "Пукнатинни води в Предбалкан -Валанж- Хотрив - апт Конево",
        "status": "registered_investigation",
        "completed_facility_confirmed": false,
        "settlement": "с. Угледно",
        "municipality": "Омуртаг",
        "district": "Търговище",
        "project_depth_m": 80.0,
        "project_depth_min_m": 80.0,
        "project_depth_max_m": 80.0,
        "project_depth_source": "80",
        "construction_description": "от 0 до 80 м експлоатационна колона PVC тръби ф 110, филтри в интервал от 20-70 м и от 75 - 80,0 м,",
        "diameters_mm": [
          110
        ],
        "drilling_diameters_mm": [],
        "casing_diameters_mm": [
          110
        ],
        "filter_diameters_mm": [],
        "construction_intervals_m": [
          {
            "from_m": 0.0,
            "to_m": 80.0
          },
          {
            "from_m": 20.0,
            "to_m": 70.0
          },
          {
            "from_m": 75.0,
            "to_m": 80.0
          }
        ],
        "materials": [
          "PVC"
        ],
        "gravel_pack_mentioned": false,
        "conductor_casing_mentioned": false,
        "filter_mentioned": true
      }
    },
    {
      "type": "Feature",
      "geometry": {
        "type": "Point",
        "coordinates": [
          27.42910833,
          42.555025
        ]
      },
      "properties": {
        "record_type": "hydrogeological_investigation",
        "source_row": 21,
        "register_number": 18,
        "gwb_code": "BG2G000000N025",
        "gwb_name": "Порови води в неоген - Бургас",
        "status": "registered_investigation",
        "completed_facility_confirmed": false,
        "settlement": "гр. Бургас",
        "municipality": "Бургас",
        "district": "Бургас",
        "project_depth_m": 60.0,
        "project_depth_min_m": 60.0,
        "project_depth_max_m": 60.0,
        "project_depth_source": "60",
        "construction_description": "от 0 до 60 м експлоатационна колона PVC тръби ф 110",
        "diameters_mm": [
          110
        ],
        "drilling_diameters_mm": [],
        "casing_diameters_mm": [
          110
        ],
        "filter_diameters_mm": [],
        "construction_intervals_m": [
          {
            "from_m": 0.0,
            "to_m": 60.0
          }
        ],
        "materials": [
          "PVC"
        ],
        "gravel_pack_mentioned": false,
        "conductor_casing_mentioned": false,
        "filter_mentioned": false
      }
    },
    {
      "type": "Feature",
      "geometry": {
        "type": "Point",
        "coordinates": [
          26.58333333,
          43.38083333
        ]
      },
      "properties": {
        "record_type": "hydrogeological_investigation",
        "source_row": 22,
        "register_number": 19,
        "gwb_code": "BG2G000J3K1040",
        "gwb_name": "Карстови води в малм-валанж",
        "status": "registered_investigation",
        "completed_facility_confirmed": false,
        "settlement": "гр. Лозница",
        "municipality": "Лозница",
        "district": "Разград",
        "project_depth_m": 450.0,
        "project_depth_min_m": 400.0,
        "project_depth_max_m": 500.0,
        "project_depth_source": "450±50",
        "construction_description": "от 0 до 20 ± 5м кондукторна метална колона ф 426; от 0 до 320 ± 10 м - стоманена колона ф394; от 300 до 450 ± 5м - стоманена филтрова колона ф 110",
        "diameters_mm": [
          110,
          394,
          426
        ],
        "drilling_diameters_mm": [],
        "casing_diameters_mm": [
          110,
          394,
          426
        ],
        "filter_diameters_mm": [
          110
        ],
        "construction_intervals_m": [
          {
            "from_m": 0.0,
            "to_m": 20.0
          },
          {
            "from_m": 0.0,
            "to_m": 320.0
          },
          {
            "from_m": 300.0,
            "to_m": 450.0
          }
        ],
        "materials": [
          "steel"
        ],
        "gravel_pack_mentioned": false,
        "conductor_casing_mentioned": true,
        "filter_mentioned": true
      }
    },
    {
      "type": "Feature",
      "geometry": {
        "type": "Point",
        "coordinates": [
          26.64353056,
          43.39130833
        ]
      },
      "properties": {
        "record_type": "hydrogeological_investigation",
        "source_row": 23,
        "register_number": 20,
        "gwb_code": "BG2G000J3K1040",
        "gwb_name": "Карстови води в малм-валанж",
        "status": "registered_investigation",
        "completed_facility_confirmed": false,
        "settlement": "с. Крояч",
        "municipality": "Лозница",
        "district": "Разград",
        "project_depth_m": 450.0,
        "project_depth_min_m": 400.0,
        "project_depth_max_m": 500.0,
        "project_depth_source": "450±50",
        "construction_description": "от 0 до 20 ± 5м кондукторна метална колона ф 426; от 0 до 320 ± 10 м - стоманена колона ф325; от 300 до 450 ± 5м - стоманена филтрова колона ф 110",
        "diameters_mm": [
          110,
          325,
          426
        ],
        "drilling_diameters_mm": [],
        "casing_diameters_mm": [
          110,
          325,
          426
        ],
        "filter_diameters_mm": [
          110
        ],
        "construction_intervals_m": [
          {
            "from_m": 0.0,
            "to_m": 20.0
          },
          {
            "from_m": 0.0,
            "to_m": 320.0
          },
          {
            "from_m": 300.0,
            "to_m": 450.0
          }
        ],
        "materials": [
          "steel"
        ],
        "gravel_pack_mentioned": false,
        "conductor_casing_mentioned": true,
        "filter_mentioned": true
      }
    },
    {
      "type": "Feature",
      "geometry": {
        "type": "Point",
        "coordinates": [
          26.75547222,
          43.00222222
        ]
      },
      "properties": {
        "record_type": "hydrogeological_investigation",
        "source_row": 24,
        "register_number": 22,
        "gwb_code": "BG2G000000Q005",
        "gwb_name": "Порови води в кватернера на р. Камчия",
        "status": "registered_investigation",
        "completed_facility_confirmed": false,
        "settlement": "с. Старо оряхово",
        "municipality": "Долни чифлик",
        "district": "Варна",
        "project_depth_m": 30.0,
        "project_depth_min_m": 25.0,
        "project_depth_max_m": 35.0,
        "project_depth_source": "30±5",
        "construction_description": "от 0-30 - сондиране; от 0-30 спускане на ПВЦ експл. колона ф 400; от 2-30 м гравийна засипка",
        "diameters_mm": [
          400
        ],
        "drilling_diameters_mm": [
          400
        ],
        "casing_diameters_mm": [
          400
        ],
        "filter_diameters_mm": [],
        "construction_intervals_m": [
          {
            "from_m": 0.0,
            "to_m": 30.0
          },
          {
            "from_m": 0.0,
            "to_m": 30.0
          },
          {
            "from_m": 2.0,
            "to_m": 30.0
          }
        ],
        "materials": [
          "PVC"
        ],
        "gravel_pack_mentioned": true,
        "conductor_casing_mentioned": false,
        "filter_mentioned": false
      }
    },
    {
      "type": "Feature",
      "geometry": {
        "type": "Point",
        "coordinates": [
          26.76808333,
          43.00041667
        ]
      },
      "properties": {
        "record_type": "hydrogeological_investigation",
        "source_row": 25,
        "register_number": 23,
        "gwb_code": "BG2G000000Q005",
        "gwb_name": "Порови води в кватернера на р. Камчия",
        "status": "registered_investigation",
        "completed_facility_confirmed": false,
        "settlement": "с. Старо оряхово",
        "municipality": "Долни чифлик",
        "district": "Варна",
        "project_depth_m": 30.0,
        "project_depth_min_m": 25.0,
        "project_depth_max_m": 35.0,
        "project_depth_source": "30±5",
        "construction_description": "от 0-30 - сондиране; от 0-30 спускане на ПВЦ експл. колона ф 400; от 2-30 м гравийна засипка",
        "diameters_mm": [
          400
        ],
        "drilling_diameters_mm": [
          400
        ],
        "casing_diameters_mm": [
          400
        ],
        "filter_diameters_mm": [],
        "construction_intervals_m": [
          {
            "from_m": 0.0,
            "to_m": 30.0
          },
          {
            "from_m": 0.0,
            "to_m": 30.0
          },
          {
            "from_m": 2.0,
            "to_m": 30.0
          }
        ],
        "materials": [
          "PVC"
        ],
        "gravel_pack_mentioned": true,
        "conductor_casing_mentioned": false,
        "filter_mentioned": false
      }
    },
    {
      "type": "Feature",
      "geometry": {
        "type": "Point",
        "coordinates": [
          27.13563611,
          42.34188611
        ]
      },
      "properties": {
        "record_type": "hydrogeological_investigation",
        "source_row": 26,
        "register_number": 24,
        "gwb_code": "BG2G00000K2034",
        "gwb_name": "Пукнатинни води в горна креда, Бургаска вулканична зона, северно и западно от Бургас",
        "status": "registered_investigation",
        "completed_facility_confirmed": false,
        "settlement": "гр. Средец",
        "municipality": "Средец",
        "district": "Бургас",
        "project_depth_m": 40.0,
        "project_depth_min_m": 30.0,
        "project_depth_max_m": 50.0,
        "project_depth_source": "40±10",
        "construction_description": "ядково сондиране",
        "diameters_mm": [],
        "drilling_diameters_mm": [],
        "casing_diameters_mm": [],
        "filter_diameters_mm": [],
        "construction_intervals_m": [],
        "materials": [],
        "gravel_pack_mentioned": false,
        "conductor_casing_mentioned": false,
        "filter_mentioned": false
      }
    },
    {
      "type": "Feature",
      "geometry": {
        "type": "Point",
        "coordinates": [
          28.43551111,
          43.42141111
        ]
      },
      "properties": {
        "record_type": "hydrogeological_investigation",
        "source_row": 27,
        "register_number": 25,
        "gwb_code": "BG2G000000N044",
        "gwb_name": "Карстово - порови води в неоген -сармат СИ Добруджа",
        "status": "registered_investigation",
        "completed_facility_confirmed": false,
        "settlement": "с. Българево",
        "municipality": "Каварна",
        "district": "Добрич",
        "project_depth_m": 70.0,
        "project_depth_min_m": 65.0,
        "project_depth_max_m": 75.0,
        "project_depth_source": "70±5",
        "construction_description": "колона и филтри ф 110 мм",
        "diameters_mm": [
          110
        ],
        "drilling_diameters_mm": [],
        "casing_diameters_mm": [
          110
        ],
        "filter_diameters_mm": [
          110
        ],
        "construction_intervals_m": [],
        "materials": [],
        "gravel_pack_mentioned": false,
        "conductor_casing_mentioned": false,
        "filter_mentioned": true
      }
    },
    {
      "type": "Feature",
      "geometry": {
        "type": "Point",
        "coordinates": [
          27.01444542,
          42.64516824
        ]
      },
      "properties": {
        "record_type": "hydrogeological_investigation",
        "source_row": 28,
        "register_number": null,
        "gwb_code": "BG2G00000K2034",
        "gwb_name": "Пукнатинни води в горна креда, Бургаска вулканична зона, северно и западно от Бургас",
        "status": "registered_investigation",
        "completed_facility_confirmed": false,
        "settlement": "гр. Карнобат",
        "municipality": "Карнобат",
        "district": "Бургас",
        "project_depth_m": 70.0,
        "project_depth_min_m": 70.0,
        "project_depth_max_m": 70.0,
        "project_depth_source": "70",
        "construction_description": "от 0 до 70 м - PVC тръби ф = 100 мм, в интервала 5 - 65 м - филтрови; с плътна част за помпата и утайник.",
        "diameters_mm": [],
        "drilling_diameters_mm": [],
        "casing_diameters_mm": [],
        "filter_diameters_mm": [],
        "construction_intervals_m": [
          {
            "from_m": 0.0,
            "to_m": 70.0
          },
          {
            "from_m": 5.0,
            "to_m": 65.0
          }
        ],
        "materials": [
          "PVC"
        ],
        "gravel_pack_mentioned": false,
        "conductor_casing_mentioned": false,
        "filter_mentioned": true
      }
    }
  ]
}
