{
  "type": "FeatureCollection",
  "name": "BDZBR mineral water facilities",
  "metadata": {
    "basin": "Western Aegean / BDZBR",
    "source_file": "mineral-water-facilities-BDZBR.csv",
    "source_record_count": 20,
    "mapped_feature_count": 17,
    "unlocated_record_count": 3,
    "facility_role_counts": {
      "abstraction": 14,
      "unspecified_in_register": 4,
      "monitoring": 2
    },
    "mapped_facility_role_counts": {
      "abstraction": 14,
      "unspecified_in_register": 2,
      "monitoring": 1
    },
    "source_status_counts": {
      "listed_in_register": 18,
      "liquidated": 2
    },
    "groundwater_body_linkage": "not_inferred",
    "coordinate_policy": "Only official/source-derived coordinates are mapped. Records without coordinates remain unlocated.",
    "generated_at_utc": "2026-08-23T16:21:19.583518+00:00"
  },
  "features": [
    {
      "type": "Feature",
      "geometry": {
        "type": "Point",
        "coordinates": [
          22.847694444444443,
          42.25802777777778
        ]
      },
      "properties": {
        "source_file": "Регистър-на-водовземни-съоръжения-за-минерални-води-от-находища-по-приложение-№2-към-чл.14-т.-2-от-ЗВ-стопанисвани-от-БДЗБР-за-сайта.xlsx",
        "source_sheet": "sheet_0",
        "source_excel_row": 5.0,
        "registration_number_date": "451047001/12.01.2007",
        "exclusive_state_property_act": "1815/18.04.2024",
        "public_state_property_facility_act": null,
        "mineral_deposit": "„Невестино-Барището” №47",
        "deposit_section": null,
        "facility_role_source": "водовземно",
        "facility_role_normalized": "abstraction",
        "facility_name": "Сондаж №1хг",
        "settlement": "Невестино",
        "municipality": "Невестино",
        "district": "Кюстендил",
        "property_number": "51216.3.42",
        "year_built": 1968.0,
        "coordinates_raw": "42°15'28.9\" 22°50'51.7\"",
        "coordinate_method": "official_geographic_dms",
        "bgs2005_coordinates_raw": "Х 4683732.886 Y 281189.494",
        "wellhead_elevation_m": null,
        "depth_m": 267.4,
        "construction_characteristics": "диаметър на експлоатaционната колона - Ǿ 146 мм; интервал на експлоатaционната колона от 0,00 до 120,00 м; водоприемна част - открит ствол; диаметър на водоприемна част - Ǿ 146 мм; интервал на водоприемна част от 139,10 до 252,00 м;",
        "pressure_or_water_level": 3.9,
        "wellhead_equipment": "През 1970 г върху сондаж №1хг е изградено каптажно съоръжение надземен тип. По метална тръба водата се подава в обществена пералня построена в границите на селото. Върху сондажа е построена тухлена построика заключена с метална врата за ограничаване достъпа до съоръжението.",
        "equipment_condition": "добро",
        "soz_coordinates_raw": "1. X 4683741.897 Y 281185.141 2. X 4683730.695 Y 281200.583 3. X 4683720.609 Y 281196.861 4. X 4683729.503 Y 281178.458",
        "soz_properties_raw": "3.1 (образуван от имот 51216.3.42)",
        "soz_order": "РД-213/06.03.2020",
        "resource_approval_order": "РД-528/18.06.2024",
        "certificate_or_balneological_assessment": "146/15.01.2020",
        "facility_condition": "добро",
        "source_status": "listed_in_register",
        "groundwater_body_linked": false,
        "groundwater_body_link_note": "No canonical groundwater-body code is available in the official source; no body linkage is inferred."
      }
    },
    {
      "type": "Feature",
      "geometry": {
        "type": "Point",
        "coordinates": [
          22.86838888888889,
          42.25830555555556
        ]
      },
      "properties": {
        "source_file": "Регистър-на-водовземни-съоръжения-за-минерални-води-от-находища-по-приложение-№2-към-чл.14-т.-2-от-ЗВ-стопанисвани-от-БДЗБР-за-сайта.xlsx",
        "source_sheet": "sheet_0",
        "source_excel_row": 6.0,
        "registration_number_date": "451047002/12.01.2007",
        "exclusive_state_property_act": "1774/20.02.2023",
        "public_state_property_facility_act": null,
        "mineral_deposit": "„Невестино-Топилата” №48",
        "deposit_section": null,
        "facility_role_source": "водовземно",
        "facility_role_normalized": "abstraction",
        "facility_name": "Сондаж №2хг \"Топилата\"",
        "settlement": "Четирци",
        "municipality": "Невестино",
        "district": "Кюстендил",
        "property_number": "81284.46.703",
        "year_built": 1969.0,
        "coordinates_raw": "42°15'29.9\" 22°52'06.2\"",
        "coordinate_method": "official_geographic_dms",
        "bgs2005_coordinates_raw": "X 4683710.370 Y 282897.155",
        "wellhead_elevation_m": null,
        "depth_m": 436.5,
        "construction_characteristics": "диаметър на експлоатaционната колона - Ǿ 146 мм; интервал на експлоатaционната колона от 0,00 до 28,00 м; водоприемна част - филтри; диаметър на водоприемна част - Ǿ 130 мм; интервал на водоприемна част от 214,00 до 436,50 м;",
        "pressure_or_water_level": 5.9,
        "wellhead_equipment": "През 1970 г върху сондаж №2хг е изградено каптажно съоръжение шахтов тип. Водата захранва обществени чешми в селото.",
        "equipment_condition": "добро",
        "soz_coordinates_raw": "1. X 4683756.700 Y 282881.967 2. X 4683756.128 Y 282905.165 3. X 4683752.607 Y 282929.653 4. X 4683749.414 Y 282931.347 5. X 4683711.013 Y 282912.658 6. X 4683712.224 Y 282906.944 7. X 4683712.620 Y 282899.395 8. X 4683711.338 Y 282894.498 9. X 4683705.377 Y 282889.453 10. X 4683708.483 Y 282873.896",
        "soz_properties_raw": "81284.46.703; 81284.45.169; 81284.45.406; 81284.45.38; 81284.36.66 по КККР на с. Четирци",
        "soz_order": "РД-479/11.07.2023",
        "resource_approval_order": "РД-529/18.06.2024",
        "certificate_or_balneological_assessment": "144/13.12.2019",
        "facility_condition": "добро",
        "source_status": "listed_in_register",
        "groundwater_body_linked": false,
        "groundwater_body_link_note": "No canonical groundwater-body code is available in the official source; no body linkage is inferred."
      }
    },
    {
      "type": "Feature",
      "geometry": {
        "type": "Point",
        "coordinates": [
          22.868402777777778,
          42.25866944444444
        ]
      },
      "properties": {
        "source_file": "Регистър-на-водовземни-съоръжения-за-минерални-води-от-находища-по-приложение-№2-към-чл.14-т.-2-от-ЗВ-стопанисвани-от-БДЗБР-за-сайта.xlsx",
        "source_sheet": "sheet_0",
        "source_excel_row": 7.0,
        "registration_number_date": null,
        "exclusive_state_property_act": null,
        "public_state_property_facility_act": null,
        "mineral_deposit": "„Невестино-Топилата” №48",
        "deposit_section": null,
        "facility_role_source": null,
        "facility_role_normalized": "unspecified_in_register",
        "facility_name": "Извор 1 \"Топилата\"",
        "settlement": "Четирци",
        "municipality": "Невестино",
        "district": "Кюстендил",
        "property_number": "81284.45.169",
        "year_built": null,
        "coordinates_raw": "42°15'31.21\" 22°52'06.25\"",
        "coordinate_method": "official_geographic_dms",
        "bgs2005_coordinates_raw": "X 4683750.840 Y 282899.779",
        "wellhead_elevation_m": null,
        "depth_m": null,
        "construction_characteristics": null,
        "pressure_or_water_level": null,
        "wellhead_equipment": "ВС не е каптирано. Водата извира от вдлъбнатина в релефа с диаметър около 1 м., след което изтича по канал в съществуващ в съседство водоем.",
        "equipment_condition": "няма",
        "soz_coordinates_raw": null,
        "soz_properties_raw": null,
        "soz_order": null,
        "resource_approval_order": null,
        "certificate_or_balneological_assessment": null,
        "facility_condition": null,
        "source_status": "listed_in_register",
        "groundwater_body_linked": false,
        "groundwater_body_link_note": "No canonical groundwater-body code is available in the official source; no body linkage is inferred."
      }
    },
    {
      "type": "Feature",
      "geometry": {
        "type": "Point",
        "coordinates": [
          22.868702777777777,
          42.25864444444444
        ]
      },
      "properties": {
        "source_file": "Регистър-на-водовземни-съоръжения-за-минерални-води-от-находища-по-приложение-№2-към-чл.14-т.-2-от-ЗВ-стопанисвани-от-БДЗБР-за-сайта.xlsx",
        "source_sheet": "sheet_0",
        "source_excel_row": 8.0,
        "registration_number_date": null,
        "exclusive_state_property_act": null,
        "public_state_property_facility_act": null,
        "mineral_deposit": "„Невестино-Топилата” №48",
        "deposit_section": null,
        "facility_role_source": null,
        "facility_role_normalized": "unspecified_in_register",
        "facility_name": "КЕИ \"Топилата\"",
        "settlement": "Четирци",
        "municipality": "Невестино",
        "district": "Кюстендил",
        "property_number": "81284.45.406",
        "year_built": null,
        "coordinates_raw": "42°15'31.12\" 22°52'07.33\"",
        "coordinate_method": "official_geographic_dms",
        "bgs2005_coordinates_raw": "X 4683747.314 Y 282924.308",
        "wellhead_elevation_m": null,
        "depth_m": null,
        "construction_characteristics": null,
        "pressure_or_water_level": null,
        "wellhead_equipment": "ВС е каптирано посредством бетонови тръби с диаметър Ø 600мм и дълбочина 95 см. Покрита с метален капак. Част от водите се отвеждат в крайпътна чешма за обществено водоползване, а другата част в съществуващия в съседство водоем.",
        "equipment_condition": "няма",
        "soz_coordinates_raw": null,
        "soz_properties_raw": null,
        "soz_order": null,
        "resource_approval_order": null,
        "certificate_or_balneological_assessment": null,
        "facility_condition": null,
        "source_status": "listed_in_register",
        "groundwater_body_linked": false,
        "groundwater_body_link_note": "No canonical groundwater-body code is available in the official source; no body linkage is inferred."
      }
    },
    {
      "type": "Feature",
      "geometry": {
        "type": "Point",
        "coordinates": [
          23.113871944444448,
          41.89323611111111
        ]
      },
      "properties": {
        "source_file": "Регистър-на-водовземни-съоръжения-за-минерални-води-от-находища-по-приложение-№2-към-чл.14-т.-2-от-ЗВ-стопанисвани-от-БДЗБР-за-сайта.xlsx",
        "source_sheet": "sheet_0",
        "source_excel_row": 9.0,
        "registration_number_date": "451070003/12.01.2007",
        "exclusive_state_property_act": "1674/03.06.2019",
        "public_state_property_facility_act": null,
        "mineral_deposit": "„Симитли” №70",
        "deposit_section": null,
        "facility_role_source": "водовземно",
        "facility_role_normalized": "abstraction",
        "facility_name": "Сондаж №1 хг",
        "settlement": "Симитли",
        "municipality": "Симитли",
        "district": "Благоевград",
        "property_number": 1.362,
        "year_built": 1981.0,
        "coordinates_raw": "41°53' 35.650\" 23° 06' 49.939\"",
        "coordinate_method": "official_geographic_dms",
        "bgs2005_coordinates_raw": "Х 4642576,517Y 301999,641",
        "wellhead_elevation_m": 289.6,
        "depth_m": 750.2,
        "construction_characteristics": "диаметър на експлоатaционната колона - Ǿ 219 мм; интервал на експлоатaционната колона от 0,00 до 42,00 м; водоприемна част - филтри; диаметър на водоприемна част - Ǿ 108 мм; интервал на водоприемна част от 478 до 750 м;",
        "pressure_or_water_level": null,
        "wellhead_equipment": "Изграден в двора на горско стопанство Симитли. Водите от сондажа на самоизлив се оттичат към обществена чешма",
        "equipment_condition": "няма",
        "soz_coordinates_raw": "т.5 Х 4514298,78 У 8481103.399 т.6 Х 4514290.71 У 8481097,492 т.7 Х 4514280,94 У 8481110.841 т.8 Х 4514289.01 У 8481116,748",
        "soz_properties_raw": "1.362 по КВС на Симитли",
        "soz_order": "РД-345/21.05.2015",
        "resource_approval_order": "РД-251/14.04.2025",
        "certificate_or_balneological_assessment": "104/20.12.2018",
        "facility_condition": "задоволително",
        "source_status": "listed_in_register",
        "groundwater_body_linked": false,
        "groundwater_body_link_note": "No canonical groundwater-body code is available in the official source; no body linkage is inferred."
      }
    },
    {
      "type": "Feature",
      "geometry": {
        "type": "Point",
        "coordinates": [
          23.110971944444447,
          41.89246333333333
        ]
      },
      "properties": {
        "source_file": "Регистър-на-водовземни-съоръжения-за-минерални-води-от-находища-по-приложение-№2-към-чл.14-т.-2-от-ЗВ-стопанисвани-от-БДЗБР-за-сайта.xlsx",
        "source_sheet": "sheet_0",
        "source_excel_row": 10.0,
        "registration_number_date": null,
        "exclusive_state_property_act": "1674/03.06.2019",
        "public_state_property_facility_act": null,
        "mineral_deposit": "„Симитли” №70",
        "deposit_section": null,
        "facility_role_source": "водовземно",
        "facility_role_normalized": "abstraction",
        "facility_name": "Сондаж №5",
        "settlement": "Симитли",
        "municipality": "Симитли",
        "district": "Благоевград",
        "property_number": 1.518,
        "year_built": 1960.0,
        "coordinates_raw": "41°53' 32.868\" 23° 06' 39.499\"",
        "coordinate_method": "official_geographic_dms",
        "bgs2005_coordinates_raw": "Х 4642497,947Y 301756,701",
        "wellhead_elevation_m": 296.38,
        "depth_m": 314.6,
        "construction_characteristics": "разположен на централния площад пред сградата на общината - не е възможно да се прецени състоянието му, покрит с бетонов капак и декоративни плочки",
        "pressure_or_water_level": null,
        "wellhead_equipment": "разположен на централния площад пред сградата на общината - не е възможно да се прецени състоянието му, покрит с бетонов капак и декоративни плочки",
        "equipment_condition": "няма",
        "soz_coordinates_raw": null,
        "soz_properties_raw": null,
        "soz_order": "в процедура",
        "resource_approval_order": null,
        "certificate_or_balneological_assessment": "под паважна настилка, не е взета проба",
        "facility_condition": null,
        "source_status": "listed_in_register",
        "groundwater_body_linked": false,
        "groundwater_body_link_note": "No canonical groundwater-body code is available in the official source; no body linkage is inferred."
      }
    },
    {
      "type": "Feature",
      "geometry": {
        "type": "Point",
        "coordinates": [
          23.10917138888889,
          41.89035361111111
        ]
      },
      "properties": {
        "source_file": "Регистър-на-водовземни-съоръжения-за-минерални-води-от-находища-по-приложение-№2-към-чл.14-т.-2-от-ЗВ-стопанисвани-от-БДЗБР-за-сайта.xlsx",
        "source_sheet": "sheet_0",
        "source_excel_row": 11.0,
        "registration_number_date": "451070001/12.01.2007",
        "exclusive_state_property_act": "1674/03.06.2019",
        "public_state_property_facility_act": null,
        "mineral_deposit": "„Симитли” №70",
        "deposit_section": null,
        "facility_role_source": "водовземно",
        "facility_role_normalized": "abstraction",
        "facility_name": "Сондаж №6",
        "settlement": "Симитли",
        "municipality": "Симитли",
        "district": "Благоевград",
        "property_number": 2.472,
        "year_built": 1964.0,
        "coordinates_raw": "41° 53' 25.273\" 23° 06' 33.017\"",
        "coordinate_method": "official_geographic_dms",
        "bgs2005_coordinates_raw": "Х 4642267,147Y 301600,815",
        "wellhead_elevation_m": 288.86,
        "depth_m": 422.2,
        "construction_characteristics": "диаметър на експлоатaционната колона - Ǿ 127 мм; интервал на експлоатaционната колона от 0,00 до 358,60 м; диаметър на експлоатационната колона - открит ствол; интервал на експлаотационната колона от 358,6 до 422,22 м; водоприемна част - открит ствол; диаметър на водоприемна част -открит ствол с 108 м; интервал на водоприемна част от 358,6 до 422,2 м;",
        "pressure_or_water_level": null,
        "wellhead_equipment": "Бетонова шахта с метален капак, около която е изградена метална ограда заключена с катинар. Водите на самоизлив чрез тръба се отвеждат към общинска баня и минерален плаж",
        "equipment_condition": "добро",
        "soz_coordinates_raw": "т.1 Х 4513968.087 У 8480712.376 т.2 Х 4513964.905 У 8480721.873 т.3 Х4513974.402 У 8480718.740 т. 4 Х 4513971.269 У 8480709.243",
        "soz_properties_raw": "2.472 по КВС на Симитли",
        "soz_order": "РД-345/21.05.2015",
        "resource_approval_order": "РД-251/14.04.2025",
        "certificate_or_balneological_assessment": "105/20.12.2018",
        "facility_condition": "добро",
        "source_status": "listed_in_register",
        "groundwater_body_linked": false,
        "groundwater_body_link_note": "No canonical groundwater-body code is available in the official source; no body linkage is inferred."
      }
    },
    {
      "type": "Feature",
      "geometry": {
        "type": "Point",
        "coordinates": [
          23.113858055555557,
          41.893280833333336
        ]
      },
      "properties": {
        "source_file": "Регистър-на-водовземни-съоръжения-за-минерални-води-от-находища-по-приложение-№2-към-чл.14-т.-2-от-ЗВ-стопанисвани-от-БДЗБР-за-сайта.xlsx",
        "source_sheet": "sheet_0",
        "source_excel_row": 12.0,
        "registration_number_date": "451070002/12.01.2007",
        "exclusive_state_property_act": "1674/03.06.2019",
        "public_state_property_facility_act": null,
        "mineral_deposit": "„Симитли” №70",
        "deposit_section": null,
        "facility_role_source": "водовземно",
        "facility_role_normalized": "abstraction",
        "facility_name": "Сондаж №7",
        "settlement": "Симитли",
        "municipality": "Симитли",
        "district": "Благоевград",
        "property_number": 1.362,
        "year_built": 1965.0,
        "coordinates_raw": "41° 53' 35.811\" 23° 06' 49.889\"",
        "coordinate_method": "official_geographic_dms",
        "bgs2005_coordinates_raw": "Х 4642581,296 Y 301998,770",
        "wellhead_elevation_m": 289.29,
        "depth_m": 234.7,
        "construction_characteristics": "диаметър на експлоатaционната колона - Ǿ 219 мм; интервал на експлоатaционната колона от 0,00 до32,25 м; диаметър на експлоатационната колона Ǿ 147 мм; интервал на експлаотационната колона от 32,25 до 234,7 м; водоприемна част - открит ствол; диаметър на водоприемна част -Ǿ 147 мм; интервал на водоприемна част от 32,25 до 234,7 м;",
        "pressure_or_water_level": 5.0,
        "wellhead_equipment": "Бетонова шахта с метален капак. Водите от сондажа се ползват за водоснабдяване на басейн в детска градина.",
        "equipment_condition": "добро",
        "soz_coordinates_raw": "т.9 Х 4513908.746 У 8480705.941 т.10 Х 4513920.891 У 8480699.467 т.11 Х 4513915.669 У 8480689.699 т.12 Х 4513903.787 У 8480696.310",
        "soz_properties_raw": "1.362 по КВС на Симитли",
        "soz_order": "РД-345/21.05.2015",
        "resource_approval_order": "РД-251/14.04.2025",
        "certificate_or_balneological_assessment": "106/20.12.2018",
        "facility_condition": "добро",
        "source_status": "listed_in_register",
        "groundwater_body_linked": false,
        "groundwater_body_link_note": "No canonical groundwater-body code is available in the official source; no body linkage is inferred."
      }
    },
    {
      "type": "Feature",
      "geometry": {
        "type": "Point",
        "coordinates": [
          23.10896166666667,
          41.889845
        ]
      },
      "properties": {
        "source_file": "Регистър-на-водовземни-съоръжения-за-минерални-води-от-находища-по-приложение-№2-към-чл.14-т.-2-от-ЗВ-стопанисвани-от-БДЗБР-за-сайта.xlsx",
        "source_sheet": "sheet_0",
        "source_excel_row": 13.0,
        "registration_number_date": "451070007/12.01.2007",
        "exclusive_state_property_act": "1674/03.06.2019",
        "public_state_property_facility_act": null,
        "mineral_deposit": "„Симитли” №70",
        "deposit_section": null,
        "facility_role_source": "водовземно",
        "facility_role_normalized": "abstraction",
        "facility_name": "Сондаж №8",
        "settlement": "Симитли",
        "municipality": "Симитли",
        "district": "Благоевград",
        "property_number": 2.63,
        "year_built": 2000.0,
        "coordinates_raw": "41° 53' 23.442\" 23° 06' 32.262\"",
        "coordinate_method": "official_geographic_dms",
        "bgs2005_coordinates_raw": "Х 4642211,609 Y 301581,001",
        "wellhead_elevation_m": 285.15,
        "depth_m": 452.0,
        "construction_characteristics": "диаметър на експлоатaционната колона - Ǿ 127 мм; интервал на експлоатaционната колона от 0,00 до 270,00 м; диаметър на експлоатационната колона Ǿ 89/5 мм; интервал на експлаотационната колона от 266 до 300 м; водоприемна част - филтри; диаметър на водоприемна част -Ǿ 89/5 мм; интервал на водоприемна част от 300 до 452 м;",
        "pressure_or_water_level": "самоизлив",
        "wellhead_equipment": "Бетонова шахта с метален капак, разположена в стъклено-метална постройка, със заключена врата, която представлява помпен и водомерен възел.",
        "equipment_condition": "добро",
        "soz_coordinates_raw": "т.9 Х 4513908.746 У 8480705.941 т.10 Х 4513920.891 У 8480699.467 т.11 Х 4513915.669 У 8480689.699 т.12 Х 4513903.787 У 8480696.310",
        "soz_properties_raw": "2.63 по КВС на Симитли",
        "soz_order": "РД-345/21.05.2015",
        "resource_approval_order": "РД-251/14.04.2025",
        "certificate_or_balneological_assessment": "107/20.12.2018",
        "facility_condition": "добро",
        "source_status": "listed_in_register",
        "groundwater_body_linked": false,
        "groundwater_body_link_note": "No canonical groundwater-body code is available in the official source; no body linkage is inferred."
      }
    },
    {
      "type": "Feature",
      "geometry": {
        "type": "Point",
        "coordinates": [
          23.109599444444445,
          41.891461666666665
        ]
      },
      "properties": {
        "source_file": "Регистър-на-водовземни-съоръжения-за-минерални-води-от-находища-по-приложение-№2-към-чл.14-т.-2-от-ЗВ-стопанисвани-от-БДЗБР-за-сайта.xlsx",
        "source_sheet": "sheet_0",
        "source_excel_row": 14.0,
        "registration_number_date": null,
        "exclusive_state_property_act": "1674/03.06.2019",
        "public_state_property_facility_act": null,
        "mineral_deposit": "„Симитли” №70",
        "deposit_section": null,
        "facility_role_source": "водовземно",
        "facility_role_normalized": "abstraction",
        "facility_name": "Сондаж №14 хг",
        "settlement": "Симитли",
        "municipality": "Симитли",
        "district": "Благоевград",
        "property_number": 1.605,
        "year_built": 1957.0,
        "coordinates_raw": "41° 53' 29.262\" 23° 06' 34.558\"",
        "coordinate_method": "official_geographic_dms",
        "bgs2005_coordinates_raw": "Х 4642389,016 Y 301639,424",
        "wellhead_elevation_m": 291.46,
        "depth_m": 156.0,
        "construction_characteristics": "разположен в градинка срещу училището - не е възможно да се прецени състоянието му,сухата камера на бетоновата каптажна шахта е затворена с метален капак",
        "pressure_or_water_level": null,
        "wellhead_equipment": "разположен в градинка срещу училището - не е възможно да се прецени състоянието му ,сухата камера на бетоновата каптажна шахта е затворена с метален капак",
        "equipment_condition": "няма",
        "soz_coordinates_raw": null,
        "soz_properties_raw": null,
        "soz_order": "в процедура",
        "resource_approval_order": null,
        "certificate_or_balneological_assessment": "под паважна настилка, не е взета проба",
        "facility_condition": null,
        "source_status": "listed_in_register",
        "groundwater_body_linked": false,
        "groundwater_body_link_note": "No canonical groundwater-body code is available in the official source; no body linkage is inferred."
      }
    },
    {
      "type": "Feature",
      "geometry": {
        "type": "Point",
        "coordinates": [
          23.108009722222224,
          41.89078861111111
        ]
      },
      "properties": {
        "source_file": "Регистър-на-водовземни-съоръжения-за-минерални-води-от-находища-по-приложение-№2-към-чл.14-т.-2-от-ЗВ-стопанисвани-от-БДЗБР-за-сайта.xlsx",
        "source_sheet": "sheet_0",
        "source_excel_row": 15.0,
        "registration_number_date": null,
        "exclusive_state_property_act": "1674/03.06.2019",
        "public_state_property_facility_act": null,
        "mineral_deposit": "„Симитли” №70",
        "deposit_section": null,
        "facility_role_source": "водовземно",
        "facility_role_normalized": "abstraction",
        "facility_name": "Сондаж №18",
        "settlement": "Симитли",
        "municipality": "Симитли",
        "district": "Благоевград",
        "property_number": 1.605,
        "year_built": 1957.0,
        "coordinates_raw": "41° 53' 26.839\" 23° 06' 28.835\"",
        "coordinate_method": "official_geographic_dms",
        "bgs2005_coordinates_raw": "Х 4642318,172 Y 301505,599",
        "wellhead_elevation_m": 292.2,
        "depth_m": 95.4,
        "construction_characteristics": "разположен на тротоара до оградата на училището - не е възможно да се прецени състоянието му,каптажната шахта е покрита с бетонна плоча и асфалт.",
        "pressure_or_water_level": null,
        "wellhead_equipment": "ВС се намира в стара бетонна шахта върху, която е изпълнена тротоарна настилка.",
        "equipment_condition": "няма",
        "soz_coordinates_raw": null,
        "soz_properties_raw": null,
        "soz_order": "в процедура",
        "resource_approval_order": null,
        "certificate_or_balneological_assessment": "под паважна настилка, не е взета проба",
        "facility_condition": null,
        "source_status": "listed_in_register",
        "groundwater_body_linked": false,
        "groundwater_body_link_note": "No canonical groundwater-body code is available in the official source; no body linkage is inferred."
      }
    },
    {
      "type": "Feature",
      "geometry": {
        "type": "Point",
        "coordinates": [
          23.28241222222222,
          41.56847833333334
        ]
      },
      "properties": {
        "source_file": "Регистър-на-водовземни-съоръжения-за-минерални-води-от-находища-по-приложение-№2-към-чл.14-т.-2-от-ЗВ-стопанисвани-от-БДЗБР-за-сайта.xlsx",
        "source_sheet": "sheet_0",
        "source_excel_row": 18.0,
        "registration_number_date": "451066001/12.01.2007",
        "exclusive_state_property_act": "1673/03.06.2019",
        "public_state_property_facility_act": null,
        "mineral_deposit": "„Сандански” №66",
        "deposit_section": null,
        "facility_role_source": "водовземно",
        "facility_role_normalized": "abstraction",
        "facility_name": "Сондаж №1 хг",
        "settlement": "Сандански",
        "municipality": "Сандански",
        "district": "Благоевград",
        "property_number": "65334.303.854",
        "year_built": 1966.0,
        "coordinates_raw": "41° 34' 06.522\" 23° 16' 56.684\"",
        "coordinate_method": "official_geographic_dms",
        "bgs2005_coordinates_raw": "Х 4606135,165 Y 315035,365",
        "wellhead_elevation_m": 235.38,
        "depth_m": 1016.0,
        "construction_characteristics": "диаметър на експлоатaционната колона - Ǿ 170 мм; интервал на експлоатaционната колона от 0,00 до 126,00 м; диаметър на експлоатационната колона Ǿ 130 мм; интервал на експлаотационната колона от 126,00 до 689,60 м; водоприемна част - филтри; диаметър на водоприемна част - 108 мм;",
        "pressure_or_water_level": null,
        "wellhead_equipment": "На устието е изграден каптаж, представляващ бетонова шахта, с две камери- суха и измерителна. Устието на сондажа е разположено в сухата камера, в която е разположен и помпено-водомерния възел.",
        "equipment_condition": "добро",
        "soz_coordinates_raw": null,
        "soz_properties_raw": null,
        "soz_order": "в процедура",
        "resource_approval_order": "РД-496/10.07.2025",
        "certificate_or_balneological_assessment": "3/ 14.02.2014",
        "facility_condition": "добро",
        "source_status": "listed_in_register",
        "groundwater_body_linked": false,
        "groundwater_body_link_note": "No canonical groundwater-body code is available in the official source; no body linkage is inferred."
      }
    },
    {
      "type": "Feature",
      "geometry": {
        "type": "Point",
        "coordinates": [
          23.280275277777775,
          41.567859722222224
        ]
      },
      "properties": {
        "source_file": "Регистър-на-водовземни-съоръжения-за-минерални-води-от-находища-по-приложение-№2-към-чл.14-т.-2-от-ЗВ-стопанисвани-от-БДЗБР-за-сайта.xlsx",
        "source_sheet": "sheet_0",
        "source_excel_row": 19.0,
        "registration_number_date": "451066003/12.01.2007",
        "exclusive_state_property_act": "1673/03.06.2019",
        "public_state_property_facility_act": null,
        "mineral_deposit": "„Сандански” №66",
        "deposit_section": null,
        "facility_role_source": "водовземно",
        "facility_role_normalized": "abstraction",
        "facility_name": "Сондаж №6",
        "settlement": "Сандански",
        "municipality": "Сандански",
        "district": "Благоевград",
        "property_number": "65334.300.3773",
        "year_built": 1959.0,
        "coordinates_raw": "41° 34' 04.295\" 23° 16' 48.991\"",
        "coordinate_method": "official_geographic_dms",
        "bgs2005_coordinates_raw": "Х 4606071,163Y 314855,251",
        "wellhead_elevation_m": 235.18,
        "depth_m": 440.0,
        "construction_characteristics": "интервал на сондиране 0,00-18,30 m; диаметър на сондиране-350 mm; интервал на обсаждане от 0,00-18,30m; външен диаметър на обсадната тръба 273 mm; обсадна тръба-стомана. Интервал на сондиране18,30m -47,50m диаметър на сондиране-250 mm; интервал на обсаждане от 18,30-47,50m; външен диаметър на обсадната тръба 219 mm. Интервал на сондиране 47,50-440,0 m; диаметър на сондиране-220; 150; 130; 109 mm;",
        "pressure_or_water_level": "самоизлив",
        "wellhead_equipment": "Сондажа е затворен под уличната настилка и достъпът до него е навъзможен. Водата от сондажа постъпва в обща разпределителна шахта- резервоар с водата от КЕИ \"Централен каптаж\".",
        "equipment_condition": "добро",
        "soz_coordinates_raw": null,
        "soz_properties_raw": null,
        "soz_order": "в процедура",
        "resource_approval_order": "РД-496/10.07.2025",
        "certificate_or_balneological_assessment": "124/17.05.2019",
        "facility_condition": "лошо",
        "source_status": "listed_in_register",
        "groundwater_body_linked": false,
        "groundwater_body_link_note": "No canonical groundwater-body code is available in the official source; no body linkage is inferred."
      }
    },
    {
      "type": "Feature",
      "geometry": {
        "type": "Point",
        "coordinates": [
          23.281304166666665,
          41.56758305555556
        ]
      },
      "properties": {
        "source_file": "Регистър-на-водовземни-съоръжения-за-минерални-води-от-находища-по-приложение-№2-към-чл.14-т.-2-от-ЗВ-стопанисвани-от-БДЗБР-за-сайта.xlsx",
        "source_sheet": "sheet_0",
        "source_excel_row": 20.0,
        "registration_number_date": "451066002/12.01.2007",
        "exclusive_state_property_act": "1673/03.06.2019",
        "public_state_property_facility_act": null,
        "mineral_deposit": "„Сандански” №66",
        "deposit_section": null,
        "facility_role_source": "водовземно",
        "facility_role_normalized": "abstraction",
        "facility_name": "КЕИ №8 (КЕИ №8 \"Централан каптаж\")",
        "settlement": "Сандански",
        "municipality": "Сандански",
        "district": "Благоевград",
        "property_number": "65334.300.3793",
        "year_built": "1948-1949",
        "coordinates_raw": "41° 34' 03.299\" 23° 16' 52.695\"",
        "coordinate_method": "official_geographic_dms",
        "bgs2005_coordinates_raw": "Х 4606038,121 Y 314940,473",
        "wellhead_elevation_m": 226.9,
        "depth_m": 15.5,
        "construction_characteristics": "Вертикална бетонова колана достигаща 15,50 м. Колоната е навлязла от 10-тия до 15,50м в силно сбити водонепропускливи седименти представени от пясъчници с глинесто песъчлива спойка. Минералната вода от шахтата се излива на кота 226,90 м.",
        "pressure_or_water_level": "самоизлив",
        "wellhead_equipment": "Каптиран с вертикална каптажна бетонова колона. Водата от каптажа постъпва в обща разпределителна шахта-в ново изграден резервоар с минерални води от Сондаж №6.",
        "equipment_condition": "добро",
        "soz_coordinates_raw": null,
        "soz_properties_raw": null,
        "soz_order": "в процедура",
        "resource_approval_order": "РД-496/10.07.2025",
        "certificate_or_balneological_assessment": "125/17.05.2019",
        "facility_condition": "задоволително",
        "source_status": "listed_in_register",
        "groundwater_body_linked": false,
        "groundwater_body_link_note": "No canonical groundwater-body code is available in the official source; no body linkage is inferred."
      }
    },
    {
      "type": "Feature",
      "geometry": {
        "type": "Point",
        "coordinates": [
          23.283972222222225,
          41.57013888888889
        ]
      },
      "properties": {
        "source_file": "Регистър-на-водовземни-съоръжения-за-минерални-води-от-находища-по-приложение-№2-към-чл.14-т.-2-от-ЗВ-стопанисвани-от-БДЗБР-за-сайта.xlsx",
        "source_sheet": "sheet_0",
        "source_excel_row": 21.0,
        "registration_number_date": null,
        "exclusive_state_property_act": null,
        "public_state_property_facility_act": null,
        "mineral_deposit": "„Сандански” №66",
        "deposit_section": null,
        "facility_role_source": "за мониторинг",
        "facility_role_normalized": "monitoring",
        "facility_name": "Каптаж в парка",
        "settlement": "Сандански",
        "municipality": "Сандански",
        "district": "Благоевград",
        "property_number": "65334.303.913",
        "year_built": null,
        "coordinates_raw": "41°34'12.5\" 23°17'02.3\"",
        "coordinate_method": "official_geographic_dms",
        "bgs2005_coordinates_raw": "X 4606315.976 Y 315169.933",
        "wellhead_elevation_m": null,
        "depth_m": null,
        "construction_characteristics": null,
        "pressure_or_water_level": null,
        "wellhead_equipment": "Бетонова каптажна шахта затворена с метален капак, ограничаващ достъпа до каптажа.",
        "equipment_condition": "няма",
        "soz_coordinates_raw": null,
        "soz_properties_raw": null,
        "soz_order": null,
        "resource_approval_order": null,
        "certificate_or_balneological_assessment": null,
        "facility_condition": "лошо",
        "source_status": "listed_in_register",
        "groundwater_body_linked": false,
        "groundwater_body_link_note": "No canonical groundwater-body code is available in the official source; no body linkage is inferred."
      }
    },
    {
      "type": "Feature",
      "geometry": {
        "type": "Point",
        "coordinates": [
          23.422777777777778,
          41.45391666666667
        ]
      },
      "properties": {
        "source_file": "Регистър-на-водовземни-съоръжения-за-минерални-води-от-находища-по-приложение-№2-към-чл.14-т.-2-от-ЗВ-стопанисвани-от-БДЗБР-за-сайта.xlsx",
        "source_sheet": "sheet_0",
        "source_excel_row": 23.0,
        "registration_number_date": "45133001/12.01.2007",
        "exclusive_state_property_act": "1816/18.04.2024",
        "public_state_property_facility_act": "3265/14.03.2018",
        "mineral_deposit": "„Катунци” №33",
        "deposit_section": null,
        "facility_role_source": "водовземно",
        "facility_role_normalized": "abstraction",
        "facility_name": "Сондаж 236хг",
        "settlement": "Катунци",
        "municipality": "Сандански",
        "district": "Благоевград",
        "property_number": "150004, 57",
        "year_built": 1987.0,
        "coordinates_raw": "41°27'14.1\" 23°25'22.0\"",
        "coordinate_method": "official_geographic_dms",
        "bgs2005_coordinates_raw": "X 4593116.083 Y 326427.562",
        "wellhead_elevation_m": 198.4,
        "depth_m": 291.0,
        "construction_characteristics": "диаметър на експлоатaционната колона - Ǿ 75 мм; интервал на експлоатaционната колона от 0,00 до 168,00 м; диаметър на експлоатационната колона Ǿ 110 мм;",
        "pressure_or_water_level": "самоизлив",
        "wellhead_equipment": "На устието на сондажа е изградена постройка в която е разположена надземна помпено-водомерна шахта, затворена с метална врата, сондажа е оборудван с водомерни възли и измервателни съоръжения за налягане и температура. Водите на самоизлив се подават към обществена чешма.",
        "equipment_condition": "добро",
        "soz_coordinates_raw": "т.1 Х 4465427.40 У 8506751.30 т.2 Х4465424.20 У8506748.40 т.3 Х 4465423.50 У 8506748.00 т.4 Х 4465426.00 У 8506739.20 т.5 Х 4465428.50 У 8506731.30 т.6 Х 4465435.00 У 8506729.80 т.7 Х 4465446.90 У8506728.00 т.8 Х 4465452.40 У 8506738.70 т.9 Х 4465455.70 У 8506746.90 т.10 Х 4465436.60 У 8506750.30",
        "soz_properties_raw": 15004.0,
        "soz_order": "РД-461/06.07.2017",
        "resource_approval_order": "РД-80/02.02.2023",
        "certificate_or_balneological_assessment": "1/25.02.2025-сертификат и №145/25.02.2025-БО",
        "facility_condition": "добро",
        "source_status": "listed_in_register",
        "groundwater_body_linked": false,
        "groundwater_body_link_note": "No canonical groundwater-body code is available in the official source; no body linkage is inferred."
      }
    },
    {
      "type": "Feature",
      "geometry": {
        "type": "Point",
        "coordinates": [
          23.42275,
          41.454055555555556
        ]
      },
      "properties": {
        "source_file": "Регистър-на-водовземни-съоръжения-за-минерални-води-от-находища-по-приложение-№2-към-чл.14-т.-2-от-ЗВ-стопанисвани-от-БДЗБР-за-сайта.xlsx",
        "source_sheet": "sheet_0",
        "source_excel_row": 24.0,
        "registration_number_date": "451033002/12.01.2007",
        "exclusive_state_property_act": "1816/18.04.2024",
        "public_state_property_facility_act": null,
        "mineral_deposit": "„Катунци” №33",
        "deposit_section": null,
        "facility_role_source": "водовземно",
        "facility_role_normalized": "abstraction",
        "facility_name": "Сондаж 235хг (С-2914)",
        "settlement": "Катунци",
        "municipality": "Сандански",
        "district": "Благоевград",
        "property_number": "150004, 57",
        "year_built": 1982.0,
        "coordinates_raw": "41°27'14.6\" 23°25'21.9\"",
        "coordinate_method": "official_geographic_dms",
        "bgs2005_coordinates_raw": "X 4593131.564 Y 326425.621",
        "wellhead_elevation_m": 198.3,
        "depth_m": 255.0,
        "construction_characteristics": "обсаден с експлоатационна тръбна колона",
        "pressure_or_water_level": "самоизлив",
        "wellhead_equipment": "На устието на сондажа е изградена бетонова шахта затворена с метален капак. Водите от сондажа на самоизлив посредством тръбопроводсе отвеждат до обществена чешма след, която се изливат свободно в дере.",
        "equipment_condition": "добро",
        "soz_coordinates_raw": null,
        "soz_properties_raw": 15004.0,
        "soz_order": "РД-461/06.07.2017",
        "resource_approval_order": "РД-80/02.02.2023",
        "certificate_or_balneological_assessment": "№295/04.03.2025",
        "facility_condition": "добро",
        "source_status": "listed_in_register",
        "groundwater_body_linked": false,
        "groundwater_body_link_note": "No canonical groundwater-body code is available in the official source; no body linkage is inferred."
      }
    }
  ],
  "quality_report": {
    "unlocated_records": [
      {
        "source_excel_row": 16.0,
        "mineral_deposit": "„Симитли” №70",
        "deposit_section": null,
        "facility_name": "Сондаж №4",
        "settlement": "Симитли",
        "municipality": "Симитли"
      },
      {
        "source_excel_row": 17.0,
        "mineral_deposit": "„Симитли” №70",
        "deposit_section": null,
        "facility_name": "Сондаж №2",
        "settlement": "Симитли",
        "municipality": "Симитли"
      },
      {
        "source_excel_row": 22.0,
        "mineral_deposit": "„Сандански” №66",
        "deposit_section": null,
        "facility_name": "Сондаж №МС4",
        "settlement": "Сандански",
        "municipality": "Сандански"
      }
    ],
    "groundwater_body_linkage": "No canonical groundwater-body code exists in this source. No spatial or name-based assignment is applied.",
    "inferred_coordinates": 0
  }
}