{
  "type": "FeatureCollection",
  "name": "BDZBR active groundwater quantitative monitoring",
  "metadata": {
    "basin": "Western Aegean / BDZBR",
    "source_file": "groundwater-monitoring-quantitative-active.csv",
    "source_record_count": 44,
    "mapped_feature_count": 44,
    "unlocated_record_count": 0,
    "duplicate_record_count": 0,
    "groundwater_body_count_with_monitoring": 21,
    "coordinate_policy": "Only source coordinates are used. No spatial correction or inferred coordinate is applied.",
    "generated_at_utc": "2026-08-23T16:18:37.369548+00:00"
  },
  "features": [
    {
      "type": "Feature",
      "geometry": {
        "type": "Point",
        "coordinates": [
          23.215314,
          41.42857
        ]
      },
      "properties": {
        "eu_point_code": "BG4G000000QMP600",
        "nimh_code": "571T1/748а",
        "settlement": "гр. Петрич",
        "basin_name": "Тръбен кладенец - НИМХ 571T1/748а,  гр. Петрич, общ. Петрич, обл. Благоевград",
        "municipality": "Петрич",
        "region": "Благоевград",
        "canonical_code": "BG4G000000Q001",
        "source_body_code": "BG4G000000Q001",
        "longitude_raw": 23.215314,
        "latitude_raw": 41.42857,
        "depth_raw": 12.9,
        "depth_m": 12.9,
        "water_level_frequency": 12.0,
        "discharge_frequency": null,
        "executor": "НИМХ"
      }
    },
    {
      "type": "Feature",
      "geometry": {
        "type": "Point",
        "coordinates": [
          23.34962,
          41.409811
        ]
      },
      "properties": {
        "eu_point_code": "BG4G000000QMP601",
        "nimh_code": "578Т1",
        "settlement": "с.  Марино поле",
        "basin_name": "Тръбен кладенец - НИМХ 578Т1, с.  Марино поле, общ. Петрич, обл. Благоевград",
        "municipality": "Петрич",
        "region": "Благоевград",
        "canonical_code": "BG4G000000Q002",
        "source_body_code": "BG4G000000Q002",
        "longitude_raw": 23.34962,
        "latitude_raw": 41.409811,
        "depth_raw": 4.74,
        "depth_m": 4.74,
        "water_level_frequency": 12.0,
        "discharge_frequency": null,
        "executor": "НИМХ"
      }
    },
    {
      "type": "Feature",
      "geometry": {
        "type": "Point",
        "coordinates": [
          23.1821,
          41.6833
        ]
      },
      "properties": {
        "eu_point_code": "BG4G000000QMP628",
        "nimh_code": "566T1/1334",
        "settlement": "с. Черниче",
        "basin_name": "Тръбен кладенец - НИМХ 566T1/1334,  с. Черниче, общ. Симитли, обл. Благоевград",
        "municipality": "Симитли",
        "region": "Благоевград",
        "canonical_code": "BG4G000000Q003",
        "source_body_code": "BG4G000000Q003",
        "longitude_raw": 23.1821,
        "latitude_raw": 41.6833,
        "depth_raw": 29.1,
        "depth_m": 29.1,
        "water_level_frequency": 12.0,
        "discharge_frequency": null,
        "executor": "НИМХ"
      }
    },
    {
      "type": "Feature",
      "geometry": {
        "type": "Point",
        "coordinates": [
          23.28333,
          42.3051
        ]
      },
      "properties": {
        "eu_point_code": "BG4G000000QMP017",
        "nimh_code": "553T1/771",
        "settlement": "с. Сапарево",
        "basin_name": "Тръбен кладенец НИМХ 553T1/771, с. Сапарево, общ. Дупница, обл. Кюстендил",
        "municipality": "Дупница",
        "region": "Кюстендил",
        "canonical_code": "BG4G000000Q005",
        "source_body_code": "BG4G000000Q005",
        "longitude_raw": 23.28333,
        "latitude_raw": 42.3051,
        "depth_raw": 30.0,
        "depth_m": 30.0,
        "water_level_frequency": 12.0,
        "discharge_frequency": null,
        "executor": "НИМХ"
      }
    },
    {
      "type": "Feature",
      "geometry": {
        "type": "Point",
        "coordinates": [
          23.151074,
          42.292517
        ]
      },
      "properties": {
        "eu_point_code": "BG4G000000QMP016",
        "nimh_code": "559Т1",
        "settlement": "с. Яхиново",
        "basin_name": "Тръбен кладенец НИМХ - 559Т1, с. Яхиново, общ. Дупница, обл. Кюстендил",
        "municipality": "Дупница",
        "region": "Кюстендил",
        "canonical_code": "BG4G000000Q005",
        "source_body_code": "BG4G000000Q005",
        "longitude_raw": 23.151074,
        "latitude_raw": 42.292517,
        "depth_raw": 13.2,
        "depth_m": 13.2,
        "water_level_frequency": 12.0,
        "discharge_frequency": null,
        "executor": "НИМХ"
      }
    },
    {
      "type": "Feature",
      "geometry": {
        "type": "Point",
        "coordinates": [
          23.281389,
          42.312699
        ]
      },
      "properties": {
        "eu_point_code": "BG4G000000QMP603",
        "nimh_code": "554Т1",
        "settlement": "с. Сапарево",
        "basin_name": "Тръбен кладенец - НИМХ 554Т1, с. Сапарево, общ. Сапарева баня, обл. Кюстендил",
        "municipality": "Сапарева баня",
        "region": "Кюстендил",
        "canonical_code": "BG4G000000Q005",
        "source_body_code": "BG4G000000Q005",
        "longitude_raw": 23.281389,
        "latitude_raw": 42.312699,
        "depth_raw": 17.0,
        "depth_m": 17.0,
        "water_level_frequency": 12.0,
        "discharge_frequency": null,
        "executor": "НИМХ"
      }
    },
    {
      "type": "Feature",
      "geometry": {
        "type": "Point",
        "coordinates": [
          23.234216,
          42.325394
        ]
      },
      "properties": {
        "eu_point_code": "BG4G000000QMP604",
        "nimh_code": "555Т1/471",
        "settlement": "с. Крайници",
        "basin_name": "Тръбен кладенец - НИМХ 555Т1/471, с. Крайници, общ. Дупница, обл. Кюстендил",
        "municipality": "Дупница",
        "region": "Кюстендил",
        "canonical_code": "BG4G000000Q005",
        "source_body_code": "BG4G000000Q005",
        "longitude_raw": 23.234216,
        "latitude_raw": 42.325394,
        "depth_raw": 3.76,
        "depth_m": 3.76,
        "water_level_frequency": 12.0,
        "discharge_frequency": null,
        "executor": "НИМХ"
      }
    },
    {
      "type": "Feature",
      "geometry": {
        "type": "Point",
        "coordinates": [
          22.786281,
          42.292985
        ]
      },
      "properties": {
        "eu_point_code": "BG4G00000QNMP204",
        "nimh_code": "548S1",
        "settlement": "с. Долна Гращица",
        "basin_name": "Тръбен кладенец НИМХ-548S1, с. Долна Гращица, общ. Кюстендил, обл. Кюстендил",
        "municipality": "Кюстендил",
        "region": "Кюстендил",
        "canonical_code": "BG4G00000QN006",
        "source_body_code": "BG4G00000QN006",
        "longitude_raw": 22.786281,
        "latitude_raw": 42.292985,
        "depth_raw": 2.65,
        "depth_m": 2.65,
        "water_level_frequency": 12.0,
        "discharge_frequency": null,
        "executor": "НИМХ"
      }
    },
    {
      "type": "Feature",
      "geometry": {
        "type": "Point",
        "coordinates": [
          22.715687,
          42.350993
        ]
      },
      "properties": {
        "eu_point_code": "BG4G00000QNMP605",
        "nimh_code": "517S1/790",
        "settlement": "с. Шишковци",
        "basin_name": "Тръбен кладенец НИМХ-517S1/790, с. Шишковци, общ. Кюстендил, обл. Кюстендил",
        "municipality": "Кюстендил",
        "region": "Кюстендил",
        "canonical_code": "BG4G00000QN006",
        "source_body_code": "BG4G00000QN006",
        "longitude_raw": 22.715687,
        "latitude_raw": 42.350993,
        "depth_raw": 6.28,
        "depth_m": 6.28,
        "water_level_frequency": 12.0,
        "discharge_frequency": null,
        "executor": "НИМХ"
      }
    },
    {
      "type": "Feature",
      "geometry": {
        "type": "Point",
        "coordinates": [
          22.522073,
          42.249107
        ]
      },
      "properties": {
        "eu_point_code": "BG4G00000QNMP606",
        "nimh_code": "520T1/170б",
        "settlement": "с. Раненци",
        "basin_name": "Тръбен кладенец НИМХ-520T1/170б, с. Раненци, общ. Кюстендил, обл. Кюстендил",
        "municipality": "Кюстендил",
        "region": "Кюстендил",
        "canonical_code": "BG4G00000QN006",
        "source_body_code": "BG4G00000QN006",
        "longitude_raw": 22.522073,
        "latitude_raw": 42.249107,
        "depth_raw": 3.25,
        "depth_m": 3.25,
        "water_level_frequency": 12.0,
        "discharge_frequency": null,
        "executor": "НИМХ"
      }
    },
    {
      "type": "Feature",
      "geometry": {
        "type": "Point",
        "coordinates": [
          22.522073,
          42.249107
        ]
      },
      "properties": {
        "eu_point_code": "BG4G00000QNMP607",
        "nimh_code": "526S1/1720",
        "settlement": "с. Гърляно",
        "basin_name": "Тръбен кладенец НИМХ-526S1/1720, с. Гърляно, общ. Кюстендил, обл. Кюстендил",
        "municipality": "Кюстендил",
        "region": "Кюстендил",
        "canonical_code": "BG4G00000QN006",
        "source_body_code": "BG4G00000QN006",
        "longitude_raw": 22.522073,
        "latitude_raw": 42.249107,
        "depth_raw": 4.45,
        "depth_m": 4.45,
        "water_level_frequency": 12.0,
        "discharge_frequency": null,
        "executor": "НИМХ"
      }
    },
    {
      "type": "Feature",
      "geometry": {
        "type": "Point",
        "coordinates": [
          22.722227,
          42.27367
        ]
      },
      "properties": {
        "eu_point_code": "BG4G00000QNMP608",
        "nimh_code": "529S1/391",
        "settlement": "с. Слокощица",
        "basin_name": "Тръбен кладенец НИМХ-529S1/391, с. Слокощица, общ. Кюстендил, обл. Кюстендил",
        "municipality": "Кюстендил",
        "region": "Кюстендил",
        "canonical_code": "BG4G00000QN006",
        "source_body_code": "BG4G00000QN006",
        "longitude_raw": 22.722227,
        "latitude_raw": 42.27367,
        "depth_raw": 4.8,
        "depth_m": 4.8,
        "water_level_frequency": 12.0,
        "discharge_frequency": null,
        "executor": "НИМХ"
      }
    },
    {
      "type": "Feature",
      "geometry": {
        "type": "Point",
        "coordinates": [
          22.73102,
          42.275712
        ]
      },
      "properties": {
        "eu_point_code": "BG4G00000QNMP609",
        "nimh_code": "532S1/392",
        "settlement": "с. Пиперков чифлик",
        "basin_name": "Тръбен кладенец НИМХ-532S1/392, с. Пиперков чифлик, общ. Кюстендил, обл. Кюстендил",
        "municipality": "Кюстендил",
        "region": "Кюстендил",
        "canonical_code": "BG4G00000QN006",
        "source_body_code": "BG4G00000QN006",
        "longitude_raw": 22.73102,
        "latitude_raw": 42.275712,
        "depth_raw": 8.3,
        "depth_m": 8.3,
        "water_level_frequency": 12.0,
        "discharge_frequency": null,
        "executor": "НИМХ"
      }
    },
    {
      "type": "Feature",
      "geometry": {
        "type": "Point",
        "coordinates": [
          22.729129,
          42.279456
        ]
      },
      "properties": {
        "eu_point_code": "BG4G00000QNMP610",
        "nimh_code": "535T1/733",
        "settlement": "с. Пиперков чифлик",
        "basin_name": "Тръбен кладенец НИМХ-535T1/733, с. Пиперков чифлик, общ. Кюстендил, обл. Кюстендил",
        "municipality": "Кюстендил",
        "region": "Кюстендил",
        "canonical_code": "BG4G00000QN006",
        "source_body_code": "BG4G00000QN006",
        "longitude_raw": 22.729129,
        "latitude_raw": 42.279456,
        "depth_raw": 7.8,
        "depth_m": 7.8,
        "water_level_frequency": 12.0,
        "discharge_frequency": null,
        "executor": "НИМХ"
      }
    },
    {
      "type": "Feature",
      "geometry": {
        "type": "Point",
        "coordinates": [
          22.757755,
          42.293218
        ]
      },
      "properties": {
        "eu_point_code": "BG4G00000QNMP611",
        "nimh_code": "538T1/736",
        "settlement": "с. Гирчевци",
        "basin_name": "Тръбен кладенец НИМХ-538T1/736, с. Гирчевци, общ. Кюстендил, обл. Кюстендил",
        "municipality": "Кюстендил",
        "region": "Кюстендил",
        "canonical_code": "BG4G00000QN006",
        "source_body_code": "BG4G00000QN006",
        "longitude_raw": 22.757755,
        "latitude_raw": 42.293218,
        "depth_raw": 9.22,
        "depth_m": 9.22,
        "water_level_frequency": 12.0,
        "discharge_frequency": null,
        "executor": "НИМХ"
      }
    },
    {
      "type": "Feature",
      "geometry": {
        "type": "Point",
        "coordinates": [
          22.772563,
          42.299338
        ]
      },
      "properties": {
        "eu_point_code": "BG4G00000QNMP612",
        "nimh_code": "541T1/741",
        "settlement": "с. Коняво",
        "basin_name": "Тръбен кладенец НИМХ-541T1/741, с. Коняво, общ. Кюстендил, обл. Кюстендил",
        "municipality": "Кюстендил",
        "region": "Кюстендил",
        "canonical_code": "BG4G00000QN006",
        "source_body_code": "BG4G00000QN006",
        "longitude_raw": 22.772563,
        "latitude_raw": 42.299338,
        "depth_raw": 3.25,
        "depth_m": 3.25,
        "water_level_frequency": 12.0,
        "discharge_frequency": null,
        "executor": "НИМХ"
      }
    },
    {
      "type": "Feature",
      "geometry": {
        "type": "Point",
        "coordinates": [
          22.93862,
          42.483151
        ]
      },
      "properties": {
        "eu_point_code": "BG4G000000QMP025",
        "nimh_code": "501S1",
        "settlement": "с. Беланица",
        "basin_name": "Шахтов  кладенец НИМХ-501S1 (Частен),  с. Беланица, общ. Радомир, обл. Перник",
        "municipality": "Радомир",
        "region": "Перник",
        "canonical_code": "BG4G000000Q007",
        "source_body_code": "BG4G000000Q007",
        "longitude_raw": 22.93862,
        "latitude_raw": 42.483151,
        "depth_raw": 6.15,
        "depth_m": 6.15,
        "water_level_frequency": 12.0,
        "discharge_frequency": null,
        "executor": "НИМХ"
      }
    },
    {
      "type": "Feature",
      "geometry": {
        "type": "Point",
        "coordinates": [
          23.082068,
          42.437125
        ]
      },
      "properties": {
        "eu_point_code": "BG4G000000QMP024",
        "nimh_code": "509S1",
        "settlement": "с. Владимир",
        "basin_name": "Шахтов кладенец НИМХ-509S1, с. Владимир, общ. Радомир, обл. Перник",
        "municipality": "Радомир",
        "region": "Перник",
        "canonical_code": "BG4G000000Q007",
        "source_body_code": "BG4G000000Q007",
        "longitude_raw": 23.082068,
        "latitude_raw": 42.437125,
        "depth_raw": 9.51,
        "depth_m": 9.51,
        "water_level_frequency": 12.0,
        "discharge_frequency": null,
        "executor": "НИМХ"
      }
    },
    {
      "type": "Feature",
      "geometry": {
        "type": "Point",
        "coordinates": [
          23.5225,
          41.881667
        ]
      },
      "properties": {
        "eu_point_code": "BG4G000000QMP029",
        "nimh_code": "585S1/497",
        "settlement": "с. Баня",
        "basin_name": "Тръбен кладенец НИМХ 585S1/497, с. Баня, общ. Разлог, обл. Благоевград",
        "municipality": "Разлог",
        "region": "Благоевград",
        "canonical_code": "BG4G000000Q008",
        "source_body_code": "BG4G000000Q008",
        "longitude_raw": 23.5225,
        "latitude_raw": 41.881667,
        "depth_raw": 5.42,
        "depth_m": 5.42,
        "water_level_frequency": 12.0,
        "discharge_frequency": null,
        "executor": "НИМХ"
      }
    },
    {
      "type": "Feature",
      "geometry": {
        "type": "Point",
        "coordinates": [
          23.74191,
          41.573008
        ]
      },
      "properties": {
        "eu_point_code": "BG4G000000QMP613",
        "nimh_code": "598S1/704б",
        "settlement": "(с. Гърмен)",
        "basin_name": "Шахтов кладенец НИМХ 598S1/704б, гр. Гоце Делчев, общ. Гърмен, обл. Благоевград",
        "municipality": "Гоце Делчев",
        "region": "Благоевград",
        "canonical_code": "BG4G000000Q009",
        "source_body_code": "BG4G000000Q009",
        "longitude_raw": 23.74191,
        "latitude_raw": 41.573008,
        "depth_raw": 5.5,
        "depth_m": 5.5,
        "water_level_frequency": 12.0,
        "discharge_frequency": null,
        "executor": "НИМХ"
      }
    },
    {
      "type": "Feature",
      "geometry": {
        "type": "Point",
        "coordinates": [
          23.262833,
          41.459606
        ]
      },
      "properties": {
        "eu_point_code": "BG4G000000NMP087",
        "nimh_code": "576T1/775",
        "settlement": "с. Рупите",
        "basin_name": "Тръбен кладенец НИМХ 576T1/775, с. Рупите, общ. Петрич, обл. Благоевград",
        "municipality": "Петрич",
        "region": "Благоевград",
        "canonical_code": "BG4G000000N012",
        "source_body_code": "BG4G000000N012",
        "longitude_raw": 23.262833,
        "latitude_raw": 41.459606,
        "depth_raw": 216.0,
        "depth_m": 216.0,
        "water_level_frequency": 4.0,
        "discharge_frequency": null,
        "executor": "НИМХ"
      }
    },
    {
      "type": "Feature",
      "geometry": {
        "type": "Point",
        "coordinates": [
          23.118293,
          41.852321
        ]
      },
      "properties": {
        "eu_point_code": "BG4G000000NMP034",
        "nimh_code": "570Т1",
        "settlement": "с. Крупник",
        "basin_name": "Сондаж \"Джи Пи Дистилърс\" ООД (НИМХ код 570Т1), с. Крупник, общ. Симитли, обл. Благоевград",
        "municipality": "Симитли",
        "region": "Благоевград",
        "canonical_code": "BG4G000000N013",
        "source_body_code": "BG4G000000N013",
        "longitude_raw": 23.118293,
        "latitude_raw": 41.852321,
        "depth_raw": 100.0,
        "depth_m": 100.0,
        "water_level_frequency": 2.0,
        "discharge_frequency": null,
        "executor": "НИМХ"
      }
    },
    {
      "type": "Feature",
      "geometry": {
        "type": "Point",
        "coordinates": [
          23.131388,
          41.852538
        ]
      },
      "properties": {
        "eu_point_code": "BG4G000000NMP614",
        "nimh_code": "568T1/1337а",
        "settlement": "с. Полето",
        "basin_name": "Тръбен кладенец НИМХ 568T1/1337а, с. Полето, общ. Симитли, обл. Благоевград",
        "municipality": "Симитли",
        "region": "Благоевград",
        "canonical_code": "BG4G000000N013",
        "source_body_code": "BG4G000000N013",
        "longitude_raw": 23.131388,
        "latitude_raw": 41.852538,
        "depth_raw": 400.0,
        "depth_m": 400.0,
        "water_level_frequency": 2.0,
        "discharge_frequency": null,
        "executor": "НИМХ"
      }
    },
    {
      "type": "Feature",
      "geometry": {
        "type": "Point",
        "coordinates": [
          23.10828,
          41.98644
        ]
      },
      "properties": {
        "eu_point_code": "BG4G000000NMP037",
        "nimh_code": "561Т1",
        "settlement": "с. Изгрев",
        "basin_name": "Сондаж \"Благоевград - БТ\" (НИМХ код 561Т1), с. Изгрев, общ. Благоевград, обл.Благоевград",
        "municipality": "Благоевград",
        "region": "Благоевград",
        "canonical_code": "BG4G000000N014",
        "source_body_code": "BG4G000000N014",
        "longitude_raw": 23.10828,
        "latitude_raw": 41.98644,
        "depth_raw": 70.0,
        "depth_m": 70.0,
        "water_level_frequency": 4.0,
        "discharge_frequency": null,
        "executor": "НИМХ"
      }
    },
    {
      "type": "Feature",
      "geometry": {
        "type": "Point",
        "coordinates": [
          23.726772,
          41.616562
        ]
      },
      "properties": {
        "eu_point_code": "BG4G00001PgMP620",
        "nimh_code": "587A3/1302",
        "settlement": "с. Баничан",
        "basin_name": "Артезиански кладенец НИМХ 587A3/1302, с. Баничан, общ. Гоце Делчев, обл.Благоевград",
        "municipality": "Гоце Делчев",
        "region": "Благоевград",
        "canonical_code": "BG4G00001PG018",
        "source_body_code": "BG4G00001Pg018",
        "longitude_raw": 23.726772,
        "latitude_raw": 41.616562,
        "depth_raw": null,
        "depth_m": null,
        "water_level_frequency": null,
        "discharge_frequency": "ежедневно",
        "executor": "НИМХ"
      }
    },
    {
      "type": "Feature",
      "geometry": {
        "type": "Point",
        "coordinates": [
          23.739051,
          41.629304
        ]
      },
      "properties": {
        "eu_point_code": "BG4G00001PgMP621",
        "nimh_code": "591A3/1303",
        "settlement": "с. Баничан",
        "basin_name": "Артезиански кладенец НИМХ 591A3/1303, с. Баничан, общ. Гоце Делчев, обл.Благоевград",
        "municipality": "Гоце Делчев",
        "region": "Благоевград",
        "canonical_code": "BG4G00001PG018",
        "source_body_code": "BG4G00001Pg018",
        "longitude_raw": 23.739051,
        "latitude_raw": 41.629304,
        "depth_raw": null,
        "depth_m": null,
        "water_level_frequency": null,
        "discharge_frequency": "ежедневно",
        "executor": "НИМХ"
      }
    },
    {
      "type": "Feature",
      "geometry": {
        "type": "Point",
        "coordinates": [
          22.91002,
          42.22538
        ]
      },
      "properties": {
        "eu_point_code": "BG4G00001T2MP048",
        "nimh_code": "549I2/415",
        "settlement": "с. Мърводол",
        "basin_name": "КЕИ \"Мърводол\", НИМХ 549I2/415, с. Мърводол, общ. Невестино, обл. Кюстендил",
        "municipality": "Невестино",
        "region": "Кюстендил",
        "canonical_code": "BG4G00001T2035",
        "source_body_code": "BG4G00001T2035",
        "longitude_raw": 22.91002,
        "latitude_raw": 42.22538,
        "depth_raw": "-",
        "depth_m": null,
        "water_level_frequency": null,
        "discharge_frequency": 12.0,
        "executor": "НИМХ"
      }
    },
    {
      "type": "Feature",
      "geometry": {
        "type": "Point",
        "coordinates": [
          23.436182,
          41.855144
        ]
      },
      "properties": {
        "eu_point_code": "BG4G0000Pt3MP622",
        "nimh_code": "584I2/59а",
        "settlement": "гр. Разлог",
        "basin_name": "КЕИ \"Кьошка\", НИМХ 584I2/59а, гр. Разлог, общ. Разлог, обл. Благоевград",
        "municipality": "Разлог",
        "region": "Благоевград",
        "canonical_code": "BG4G000PT3031",
        "source_body_code": "BG4G0000Pt3031",
        "longitude_raw": 23.436182,
        "latitude_raw": 41.855144,
        "depth_raw": null,
        "depth_m": null,
        "water_level_frequency": null,
        "discharge_frequency": 12.0,
        "executor": "НИМХ"
      }
    },
    {
      "type": "Feature",
      "geometry": {
        "type": "Point",
        "coordinates": [
          23.42706,
          41.85561
        ]
      },
      "properties": {
        "eu_point_code": "BG4G0000Pt3MP044",
        "nimh_code": "581I2/59з",
        "settlement": "гр. Разлог",
        "basin_name": "КЕИ \"Язо\", НИМХ 581I2/59з, гр. Разлог, общ. Разлог, обл. Благоевград",
        "municipality": "Разлог",
        "region": "Благоевград",
        "canonical_code": "BG4G000PT3031",
        "source_body_code": "BG4G0000Pt3031",
        "longitude_raw": 23.42706,
        "latitude_raw": 41.85561,
        "depth_raw": "-",
        "depth_m": null,
        "water_level_frequency": null,
        "discharge_frequency": 12.0,
        "executor": "НИМХ"
      }
    },
    {
      "type": "Feature",
      "geometry": {
        "type": "Point",
        "coordinates": [
          23.54972,
          41.41611
        ]
      },
      "properties": {
        "eu_point_code": "BG4G0000Pt1MP049",
        "nimh_code": "579I2/410",
        "settlement": "с. Петрово",
        "basin_name": "КЕИ \"Петрово\"579I2/410, с. Петрово, общ. Сандански, обл. Благоевград",
        "municipality": "Сандански",
        "region": "Благоевград",
        "canonical_code": "BG4G0001PT1036",
        "source_body_code": "BG4G0001Pt1036",
        "longitude_raw": 23.54972,
        "latitude_raw": 41.41611,
        "depth_raw": "-",
        "depth_m": null,
        "water_level_frequency": null,
        "discharge_frequency": 12.0,
        "executor": "НИМХ"
      }
    },
    {
      "type": "Feature",
      "geometry": {
        "type": "Point",
        "coordinates": [
          23.7625,
          41.5469
        ]
      },
      "properties": {
        "eu_point_code": "BG4G00001PtMP050",
        "nimh_code": "595I2/412б",
        "settlement": "с. Мусомище",
        "basin_name": "Карстов извор \"Топлика\", НИМХ 595I2/412б, с. Мусомище, общ. Гоце Делчев, обл. Благоевград",
        "municipality": "Гоце Делчев",
        "region": "Благоевград",
        "canonical_code": "BG4G0001PT1036",
        "source_body_code": "BG4G0001Pt1036",
        "longitude_raw": 23.7625,
        "latitude_raw": 41.5469,
        "depth_raw": null,
        "depth_m": null,
        "water_level_frequency": null,
        "discharge_frequency": 12.0,
        "executor": "НИМХ"
      }
    },
    {
      "type": "Feature",
      "geometry": {
        "type": "Point",
        "coordinates": [
          22.948404,
          41.929786
        ]
      },
      "properties": {
        "eu_point_code": "BG4G000T1T2MP616",
        "nimh_code": "564I2/488а",
        "settlement": "с. Горно Лешко",
        "basin_name": "КЕИ \"Св. Богородица\", НИМХ 564I2/488а, с. Горно Лешко, общ. Благоевград, обл. Благоевград",
        "municipality": "Благоевград",
        "region": "Благоевград",
        "canonical_code": "BG4G00T1T2033",
        "source_body_code": "BG4G000T1T2033",
        "longitude_raw": 22.948404,
        "latitude_raw": 41.929786,
        "depth_raw": null,
        "depth_m": null,
        "water_level_frequency": null,
        "discharge_frequency": 12.0,
        "executor": "НИМХ"
      }
    },
    {
      "type": "Feature",
      "geometry": {
        "type": "Point",
        "coordinates": [
          22.93583,
          41.98472
        ]
      },
      "properties": {
        "eu_point_code": "BG4G000T1T2MP046",
        "nimh_code": "562I2/414",
        "settlement": "с. Логодаж",
        "basin_name": "КЕИ \"Черквата\", НИМХ 562I2/414",
        "municipality": "Благоевград",
        "region": "Благоевград",
        "canonical_code": "BG4G00T1T2033",
        "source_body_code": "BG4G000T1T2033",
        "longitude_raw": 22.93583,
        "latitude_raw": 41.98472,
        "depth_raw": "-",
        "depth_m": null,
        "water_level_frequency": null,
        "discharge_frequency": 12.0,
        "executor": "НИМХ"
      }
    },
    {
      "type": "Feature",
      "geometry": {
        "type": "Point",
        "coordinates": [
          22.80528,
          42.13806
        ]
      },
      "properties": {
        "eu_point_code": "BG4G000T1T2MP047",
        "nimh_code": "551I2/1301",
        "settlement": "(с. Невестино) с. Смоличано",
        "basin_name": "КЕИ \"Света Анна\", НИМХ 551I2/1301",
        "municipality": "Невестино",
        "region": "Кюстендил",
        "canonical_code": "BG4G00T1T2034",
        "source_body_code": "BG4G000T1T2034",
        "longitude_raw": 22.80528,
        "latitude_raw": 42.13806,
        "depth_raw": "-",
        "depth_m": null,
        "water_level_frequency": null,
        "discharge_frequency": 12.0,
        "executor": "НИМХ"
      }
    },
    {
      "type": "Feature",
      "geometry": {
        "type": "Point",
        "coordinates": [
          22.576817,
          42.454974
        ]
      },
      "properties": {
        "eu_point_code": "BG4G000T2T3MP629",
        "nimh_code": "508I2/798",
        "settlement": "с. Горно Уйно",
        "basin_name": "КЕИ \"Горно Уйно\" - НИМХ 508I2/798",
        "municipality": "Кюстендил",
        "region": "Кюстендил",
        "canonical_code": "BG4G00T2T3028",
        "source_body_code": "BG4G000T2T3028",
        "longitude_raw": 22.576817,
        "latitude_raw": 42.454974,
        "depth_raw": null,
        "depth_m": null,
        "water_level_frequency": null,
        "discharge_frequency": 12.0,
        "executor": "НИМХ"
      }
    },
    {
      "type": "Feature",
      "geometry": {
        "type": "Point",
        "coordinates": [
          22.710142,
          42.392579
        ]
      },
      "properties": {
        "eu_point_code": "BG4G000T2T3MP624",
        "nimh_code": "512I2/461",
        "settlement": "с. Раждавица",
        "basin_name": "КЕИ \"Шегава\", НИМХ 512I2/461 , с. Раждавица,общ. Кюстендил, обл. Кюстендил",
        "municipality": "Кюстендил",
        "region": "Кюстендил",
        "canonical_code": "BG4G00T2T3028",
        "source_body_code": "BG4G000T2T3028",
        "longitude_raw": 22.710142,
        "latitude_raw": 42.392579,
        "depth_raw": null,
        "depth_m": null,
        "water_level_frequency": null,
        "discharge_frequency": 12.0,
        "executor": "НИМХ"
      }
    },
    {
      "type": "Feature",
      "geometry": {
        "type": "Point",
        "coordinates": [
          22.682577,
          42.411904
        ]
      },
      "properties": {
        "eu_point_code": "BG4G000T2T3MP539",
        "nimh_code": "510I2/86",
        "settlement": "с. Полска Скакавица",
        "basin_name": "КЕИ, НИМХ 510I2/86, с. Полска Скакавица",
        "municipality": "Кюстендил",
        "region": "Кюстендил",
        "canonical_code": "BG4G00T2T3028",
        "source_body_code": "BG4G000T2T3028",
        "longitude_raw": 22.682577,
        "latitude_raw": 42.411904,
        "depth_raw": "-",
        "depth_m": null,
        "water_level_frequency": null,
        "discharge_frequency": 12.0,
        "executor": "НИМХ"
      }
    },
    {
      "type": "Feature",
      "geometry": {
        "type": "Point",
        "coordinates": [
          23.0661,
          42.47888
        ]
      },
      "properties": {
        "eu_point_code": "BG4G1T1T2T3MP051",
        "nimh_code": "504I2/40",
        "settlement": "с. Друган",
        "basin_name": "КЕИ \"Опалаво\", НИМХ 504I2/40",
        "municipality": "Радомир",
        "region": "Перник",
        "canonical_code": "BG4G1T1T2T3037",
        "source_body_code": "BG4G1T1T2T3037",
        "longitude_raw": 23.0661,
        "latitude_raw": 42.47888,
        "depth_raw": "-",
        "depth_m": null,
        "water_level_frequency": null,
        "discharge_frequency": 12.0,
        "executor": "НИМХ"
      }
    },
    {
      "type": "Feature",
      "geometry": {
        "type": "Point",
        "coordinates": [
          23.06611,
          42.478888
        ]
      },
      "properties": {
        "eu_point_code": "BG4G1T1T2T3MP617",
        "nimh_code": "502I2/464",
        "settlement": "с. Старо село",
        "basin_name": "КЕИ, НИМХ 502I2/464",
        "municipality": "Радомир",
        "region": "Перник",
        "canonical_code": "BG4G1T1T2T3037",
        "source_body_code": "BG4G1T1T2T3037",
        "longitude_raw": 23.06611,
        "latitude_raw": 42.478888,
        "depth_raw": null,
        "depth_m": null,
        "water_level_frequency": null,
        "discharge_frequency": 12.0,
        "executor": "НИМХ"
      }
    },
    {
      "type": "Feature",
      "geometry": {
        "type": "Point",
        "coordinates": [
          23.153128,
          42.502704
        ]
      },
      "properties": {
        "eu_point_code": "BG4G1T1T2T3MP618",
        "nimh_code": "500I2/75",
        "settlement": "с. Боснек",
        "basin_name": "КЕИ, НИМХ 500I2/75",
        "municipality": "Перник",
        "region": "Перник",
        "canonical_code": "BG4G1T1T2T3037",
        "source_body_code": "BG4G1T1T2T3037",
        "longitude_raw": 23.153128,
        "latitude_raw": 42.502704,
        "depth_raw": null,
        "depth_m": null,
        "water_level_frequency": null,
        "discharge_frequency": 12.0,
        "executor": "НИМХ"
      }
    },
    {
      "type": "Feature",
      "geometry": {
        "type": "Point",
        "coordinates": [
          23.010919,
          42.471308
        ]
      },
      "properties": {
        "eu_point_code": "BG4G1T1T2T3MP625",
        "nimh_code": "506I2/87",
        "settlement": "с. Долни Раковец",
        "basin_name": "КЕИ \"Банките\", НИМХ 506I2/87",
        "municipality": "Радомир",
        "region": "Перник",
        "canonical_code": "BG4G1T1T2T3037",
        "source_body_code": "BG4G1T1T2T3037",
        "longitude_raw": 23.010919,
        "latitude_raw": 42.471308,
        "depth_raw": null,
        "depth_m": null,
        "water_level_frequency": null,
        "discharge_frequency": 12.0,
        "executor": "НИМХ"
      }
    },
    {
      "type": "Feature",
      "geometry": {
        "type": "Point",
        "coordinates": [
          23.54212,
          42.248275
        ]
      },
      "properties": {
        "eu_point_code": "BG4G001PzC2MP615",
        "nimh_code": "910I3/58",
        "settlement": "с. Бели Искър, Извор НИМХ 910I3/58, с. Бели Искъра, общ. Самоков, обл. София",
        "basin_name": "с. Бели Искър, Извор НИМХ 910I3/58, с. Бели Искъра, общ. Самоков, обл. София",
        "municipality": "Самоков",
        "region": "София",
        "canonical_code": "BG4G001PZC2021",
        "source_body_code": "BG4G001PzC2021",
        "longitude_raw": 23.54212,
        "latitude_raw": 42.248275,
        "depth_raw": null,
        "depth_m": null,
        "water_level_frequency": null,
        "discharge_frequency": 12.0,
        "executor": "НИМХ"
      }
    },
    {
      "type": "Feature",
      "geometry": {
        "type": "Point",
        "coordinates": [
          23.061447,
          42.158368
        ]
      },
      "properties": {
        "eu_point_code": "BG4G001PzC2MP623",
        "nimh_code": "560A3/487в",
        "settlement": "с. Слатино",
        "basin_name": "Артезиански кладенец НИМХ 560A3/487в, с. Слатино, общ. Бобошево, обл. Кюстендил",
        "municipality": "Бобошево",
        "region": "Кюстендил",
        "canonical_code": "BG4G001PZC2021",
        "source_body_code": "BG4G001PzC2021",
        "longitude_raw": 23.061447,
        "latitude_raw": 42.158368,
        "depth_raw": null,
        "depth_m": null,
        "water_level_frequency": null,
        "discharge_frequency": 12.0,
        "executor": "НИМХ"
      }
    },
    {
      "type": "Feature",
      "geometry": {
        "type": "Point",
        "coordinates": [
          23.7817361,
          41.53383056
        ]
      },
      "properties": {
        "eu_point_code": "BG4G000000NMP800",
        "nimh_code": null,
        "settlement": "(гр. Хаджидимово)с. Ново Ляски",
        "basin_name": "Шахтов кладенец",
        "municipality": "Хаджидимово",
        "region": "Благоевград",
        "canonical_code": "BG4G000000N017",
        "source_body_code": "BG4G000000N017",
        "longitude_raw": 23.7817361,
        "latitude_raw": 41.53383056,
        "depth_raw": null,
        "depth_m": null,
        "water_level_frequency": null,
        "discharge_frequency": 12.0,
        "executor": "НИМХ"
      }
    }
  ],
  "quality_report": {
    "duplicate_records": [],
    "unlocated_records": [],
    "unknown_groundwater_body_codes": []
  }
}